name,phone,address,zip,cuisine,website,id,road_name,road_dir,road_number,city
Staropolska Restaurant,(773) 342-0779,3030 N Milwaukee Ave,60618,Polish,,yelp_2_4,Milwaukee,N,3030.0,
Kai Zan,(773) 278-5776,2557 W Chicago Ave,60622,Asian Fusion,,yelp_2_6,Chicago,W,2557.0,
The 3rd Coast,(312) 649-0730,1260 N Dearborn Pkwy,60610,Wine Bars,,yelp_2_8,Dearborn,N,1260.0,
Wasabi,(773) 227-8180,2115 N Milwaukee Ave,60647,Ramen,,yelp_2_9,Milwaukee,N,2115.0,
Xoco,(312) 661-1434,449 N Clark St,60654,Mexican,,yelp_2_11,Clark,N,449.0,
La Sirena Clandestina,(312) 226-5300,954 W Fulton Market,60607,Latin American,,yelp_2_14,Fulton Market,W,954.0,
The Dawson,(312) 243-8955,730 W Grand Ave,60654,American (Traditional),,yelp_2_15,Grand,W,730.0,
Moon’s Sandwich Shop,(312) 226-5094,16 S Western Ave,60612,Sandwiches,,yelp_2_19,Western,S,16.0,
Wildberry Pancakes and Cafe,(312) 938-9777,130 E Randolph St,60601,Breakfast & Brunch,,yelp_2_20,Randolph,E,130.0,
Volare Ristorante Italiano,(312) 410-9900,201 E Grand Ave,60611,Italian,,yelp_2_29,Grand,E,201.0,
Pl-zen,(312) 733-0248,1519 W 18th St,60608,Gastropubs,,yelp_2_35,18Th,W,1519.0,
Beatrix,(312) 284-1377,519 North Clark Street,60654,American (New),,yelp_2_40,Clark,N,519.0,
Sunset Pho Caffe,(773) 275-2327,5726 N Western Ave,60659,Lounges,,yelp_2_50,Western,N,5726.0,
Nookies,(312) 337-2454,1746 N Wells St,60614,Breakfast & Brunch,,yelp_2_51,Wells,N,1746.0,
Topo Gigio Ristorante,(312) 266-9355,1516 N Wells St,60610,Italian,,yelp_2_53,Wells,N,1516.0,
Farmhouse,(312) 280-4960,228 W Chicago Ave,60654,American (Traditional),,yelp_2_54,Chicago,W,228.0,
Briciola,(773) 772-0889,937 N Damen,60622,Italian,,yelp_2_55,Damen,N,937.0,
Pearl’s Southern Comfort,(773) 754-7419,5352 N Broadway St,60640,Southern,,yelp_2_56,Broadway,N,5352.0,
Wyler Road,(773) 661-0675,3581 W Belden Ave,60647,Bars,,yelp_2_57,Belden,W,3581.0,
Davanti Enoteca,(312) 226-5550,1359 W Taylor St,60607,Italian,,yelp_2_62,Taylor,W,1359.0,
Viaggio Ristorante & Lounge,(312) 829-3333,1330 W Madison St,60607,Italian,,yelp_2_63,Madison,W,1330.0,
Nuevo Leon Restaurant,(312) 421-1517,1515 W 18th St,60608,Mexican,,yelp_2_71,18Th,W,1515.0,
Kingsbury Street Cafe,(312) 280-1718,1523 N Kingsbury St,60642,American (New),,yelp_2_72,Kingsbury,N,1523.0,
de Quay,(872) 206-8820,2470 N Lincoln Ave,60614,Indonesian,,yelp_2_75,Lincoln,N,2470.0,
The Panini Republic,(773) 525-2000,500 W Diversey Pkwy,60614,Sandwiches,,yelp_2_78,Diversey,W,500.0,
Fork,(773) 751-1500,4600 N Lincoln Ave,60625,American (New),,yelp_2_80,Lincoln,N,4600.0,
Ge Pa De Caffe,(312) 332-2200,60 E Adams St,60603,Italian,,yelp_2_81,Adams,E,60.0,
Husky Hog BBQ,(773) 442-2769,335 W 31st St,60616,Food Trucks,,yelp_2_83,31St,W,335.0,
The Drinkingbird,(773) 472-9920,2201 N Clybourn Ave,60614,"American (New),Outdoor Gear,Furniture Stores",,yelp_2_84,Clybourn,N,2201.0,
Fatso’s Last Stand,(773) 245-3287,2258 W Chicago Ave,60622,Hot Dogs,,yelp_2_85,Chicago,W,2258.0,
MingHin Cuisine,(312) 808-1999,2168 S Archer Ave,60616,"Seafood,Chinese",,yelp_2_86,Archer,S,2168.0,
Mott St,(773) 687-9977,1401 N Ashland Ave,60622,Asian Fusion,,yelp_2_91,Ashland,N,1401.0,
Irazu,(773) 252-5687,1865 N Milwaukee Ave,60647,Latin American,,yelp_2_94,Milwaukee,N,1865.0,
Greek Islands Restaurant,(312) 782-9855,200 S Halsted St,60661,Greek,,yelp_2_96,Halsted,S,200.0,
Au Cheval,(312) 929-4580,800 W Randolph S,60607,American (New),,yelp_2_98,Randolph S,W,800.0,
Moxee Restaurant & Mad Mouse Brewery,(312) 243-3660,724 W Maxwell St,60607,American (New),,yelp_2_104,Maxwell,W,724.0,
The Franklin Room,(312) 445-4686,675 N Franklin St,60654,American (New),,yelp_2_105,Franklin,N,675.0,
Frontera Fresco,(312) 781-4483,111 N State St,60602,Mexican,,yelp_2_106,State,N,111.0,
La Scarola,(312) 243-1740,721 W Grand Ave,60610,Italian,,yelp_2_107,Grand,W,721.0,
Café Iberico,(312) 573-1510,737 N Lasalle Blvd,60654,Spanish,,yelp_2_108,Lasalle,N,737.0,
Dove’s Luncheonette,(773) 645-4060,1545 N Damen Ave,60622,Southern,,yelp_2_112,Damen,N,1545.0,
The Bristol,(773) 862-5555,2152 N Damen Ave,60647,American (New),,yelp_2_118,Damen,N,2152.0,
Sono Wood Fired,(312) 255-1122,1582 N Clybourn Ave,60642,"Italian,Burgers",,yelp_2_123,Clybourn,N,1582.0,
Grace,(312) 234-9494,652 W Randolph St,60661,American (New),,yelp_2_126,Randolph,W,652.0,
Bridge House Tavern,(312) 644-0283,321 N Clark St,60654,American (New),,yelp_2_129,Clark,N,321.0,
Oiistar,(773) 360-8791,1385 N Milwaukee Ave,60622,American (New),,yelp_2_130,Milwaukee,N,1385.0,
Blackwood BBQ,(312) 621-9663,305 W Lake St,60606,Barbeque,,yelp_2_131,Lake,W,305.0,
Yuzu Sushi & Robata Grill,(312) 666-4100,1751 W Chicago Ave,60622,Japanese,,yelp_2_136,Chicago,W,1751.0,
Ramen Takeya,(312) 666-7710,819 W Fulton Market,60607,Ramen,,yelp_2_137,Fulton Market,W,819.0,
Kai Sushi,(312) 583-0567,1255 S State St,60605,Sushi Bars,,yelp_2_139,State,S,1255.0,
Silli Kori,(773) 384-5352,2053 W Division St,60622,Thai,,yelp_2_148,Division,W,2053.0,
Tabaq Restaurant,(312) 944-1245,1245 N Clybourn St,60610,Pakistani,,yelp_2_152,Clybourn,N,1245.0,
Feed,(773) 489-4600,2803 W Chicago Ave,60622,Southern,,yelp_2_154,Chicago,W,2803.0,
Gyu-Kaku Japanese BBQ,(312) 266-8929,210 E Ohio St,60611,Japanese,,yelp_2_155,Ohio,E,210.0,
Nana,(312) 929-2486,3267 S Halsted St,60608,American (New),,yelp_2_161,Halsted,S,3267.0,
Flo,(312) 243-0477,1434 W Chicago Ave,60642,Breakfast & Brunch,,yelp_2_162,Chicago,W,1434.0,
Thai Aree House,(773) 725-6751,3592 N Milwaukee Ave,60641,Thai,,yelp_2_163,Milwaukee,N,3592.0,
Alinea,(312) 867-0110,1723 N Halsted St,60614,Japanese,,yelp_2_165,Halsted,N,1723.0,
The Pasta Bowl,(773) 525-2695,2434 N Clark St,60614,Italian,,yelp_2_166,Clark,N,2434.0,
Papa’s Cache Sabroso,(773) 862-8313,2517 W Division St,60622,Latin American,,yelp_2_169,Division,W,2517.0,
Cooper’s,(773) 929-2667,1232 W Belmont Ave,60657,Bars,,yelp_2_170,Belmont,W,1232.0,
First Draft,(312) 461-1062,649 S Clark St,60605,Bars,,yelp_2_175,Clark,S,649.0,
Uptown Pho,(773) 878-8820,1010 W Argyle St,60640,Vietnamese,,yelp_2_177,Argyle,W,1010.0,
LYFE Kitchen,(312) 836-5933,413 N Clark St,60654,American (New),,yelp_2_179,Clark,N,413.0,
Ground Control,(773) 772-9446,3315 W Armitage Ave,60647,Vegetarian,,yelp_2_182,Armitage,W,3315.0,
Kabobi Grill,(773) 583-1400,4748 N Kedzie Ave,60625,Mediterranean,,yelp_2_186,Kedzie,N,4748.0,
Sumo Sushi & Hibachi Grill,(773) 477-8510,2936 N Broadway,60657,Sushi Bars,,yelp_2_188,Broadway,N,2936.0,
Monti’s,(773) 942-6012,4757 N Talman Ave,60625,Cheesesteaks,,yelp_2_190,Talman,N,4757.0,
Blackwood BBQ,(312) 631-3431,28 S Clinton St,60661,Barbeque,,yelp_2_191,Clinton,S,28.0,
Khaosan & Taylor,(312) 997-9991,1104 W Taylor St,60607,Thai,,yelp_2_195,Taylor,W,1104.0,
Handlebar,(773) 384-9546,2311 W North Ave,60647,Vegetarian,,yelp_2_197,North,W,2311.0,
Mana Food Bar,(773) 342-1742,1742 W Division St,60622,"Vegetarian,Sushi Bars",,yelp_2_199,Division,W,1742.0,
Noodles In the Pot,(773) 975-6177,2453 N Halsted St,60614,Thai,,yelp_2_203,Halsted,N,2453.0,
Grange Hall Burger Bar,(312) 491-0844,844 W Randolph St,60607,Burgers,,yelp_2_204,Randolph,W,844.0,
más,(312) 243-1995,800 W Washington Blvd,60607,Mexican,,yelp_2_214,Washington,W,800.0,
The Chicago Diner,(773) 252-3211,2333 N Milwaukee Ave,60647,Vegan,,yelp_2_219,Milwaukee,N,2333.0,
Momotaro,(312) 733-4818,820 W Lake St,60607,Sushi Bars,,yelp_2_225,Lake,W,820.0,
Tango Sur,(773) 477-5466,3763 N Southport Ave,60613,Steakhouses,,yelp_2_226,Southport,N,3763.0,
Big Bricks,(773) 525-5022,3832 N Lincoln Ave,60613,Pizza,,yelp_2_227,Lincoln,N,3832.0,
Nando Milano Trattoria,(773) 486-2636,2114 W Division St,60622,Italian,,yelp_2_229,Division,W,2114.0,
Ara On,(312) 781-7300,160 W Adams St,60603,Asian Fusion,,yelp_2_237,Adams,W,160.0,
Eduardo’s Enoteca,(312) 337-4490,1212 N Dearborn St,60610,Italian,,yelp_2_238,Dearborn,N,1212.0,
Rice’N Bread,(773) 281-4452,3435 N Sheffield Ave,60657,Korean,,yelp_2_240,Sheffield,N,3435.0,
Tanta,(312) 222-9700,118 W Grand Ave,60654,Peruvian,,yelp_2_241,Grand,W,118.0,
Pork Shoppe,(773) 961-7654,2755 W Belmont Ave,60618,Barbeque,,yelp_2_242,Belmont,W,2755.0,
The Gage,(312) 372-4243,24 S Michigan Ave,60603,Gastropubs,,yelp_2_243,Michigan,S,24.0,
Uncle Mike’s Place,(312) 226-5318,1700 W Grand Ave,60622,Breakfast & Brunch,,yelp_2_244,Grand,W,1700.0,
mEAT Streeterville,(773) 328-8320,215 E Chestnut St,60611,"American (New),American (New)",,yelp_2_255,Chestnut,E,215.0,
Taverna 750,(773) 904-7466,750 W Cornelia Ave,60657,Cocktail Bars,,yelp_2_258,Cornelia,W,750.0,
Blackbird,(312) 715-0708,619 W Randolph St,60661,American (New),,yelp_2_261,Randolph,W,619.0,
Olive Mediterranean Grill,(312) 274-5525,1001 W North Ave,60642,Mediterranean,,yelp_2_264,North,W,1001.0,
Chicken Planet,(312) 360-1409,177 W Van Buren St,60605,American (New),,yelp_2_266,Van Buren,W,177.0,
Slim’s,(773) 878-7546,2020 W Montrose Ave,60618,Sandwiches,,yelp_2_267,Montrose,W,2020.0,
Longman & Eagle,(773) 276-7110,2657 N Kedzie Ave,60647,Hotels,,yelp_2_276,Kedzie,N,2657.0,
Shokran Moroccan Restaurant,(773) 427-9130,4027 W Irving Park,60641,Moroccan,,yelp_2_278,Irving,W,4027.0,
Tweet,(773) 728-5576,5020 N Sheridan Rd,60640,American (New),,yelp_2_281,Sheridan,N,5020.0,
County Barbeque,(312) 929-2528,1352 W Taylor St,60607,Barbeque,,yelp_2_284,Taylor,W,1352.0,
Little Goat,(312) 888-3455,820 W Randolph St,60607,Diners,,yelp_2_287,Randolph,W,820.0,
Breakfast House,(312) 997-2400,1800 W Grand Ave,60622,Breakfast & Brunch,,yelp_2_290,Grand,W,1800.0,
Dak,(773) 754-0255,1104 W Granville Ave,60660,Korean,,yelp_2_293,Granville,W,1104.0,
Frontera Grill,(312) 661-1434,445 N Clark St,60654,Mexican,,yelp_2_295,Clark,N,445.0,
Parson’s Chicken & Fish,(773) 384-3333,2952 W Armitage,60647,American (New),,yelp_2_297,Armitage,W,2952.0,
Summer House,(773) 634-4100,1954 N Halsted St,60614,American (Traditional),,yelp_2_298,Halsted,N,1954.0,
Go 4 Food,(312) 842-8688,212 W 23rd St,60616,Chinese,,yelp_2_300,23Rd,W,212.0,
Perennial Virant,(312) 981-7070,1800 N Lincoln Ave,60614,American (New),,yelp_2_301,Lincoln,N,1800.0,
Flub A Dub Chub’s,(773) 857-6500,3021 N Broadway,60657,Hot Dogs,,yelp_2_302,Broadway,N,3021.0,
The Peasantry,(773) 868-4888,2723 N Clark St,60614,American (New),,yelp_2_304,Clark,N,2723.0,
Spacca Napoli,(773) 878-2420,1769 W Sunnyside Ave,60640,Pizza,,yelp_2_305,Sunnyside,W,1769.0,
Piece Brewery and Pizzeria,(773) 772-4422,1927 W North Ave,60622,Pizza,,yelp_2_311,North,W,1927.0,
Balena,(312) 867-3888,1633 N Halsted St,60614,Italian,,yelp_2_318,Halsted,N,1633.0,
Bodhi Thai,(312) 492-8424,1800 S Jefferson,60616,Thai,,yelp_2_322,Jefferson,S,1800.0,
Fish Bar,(773) 687-8177,2956 N Sheffield Ave,60657,Seafood,,yelp_2_324,Sheffield,N,2956.0,
bopNGrill,(773) 654-3224,6604 N Sheridan Rd,60626,Burgers,,yelp_2_325,Sheridan,N,6604.0,
Sultan’s Market,(773) 235-3072,2057 W North Ave,60647,Middle Eastern,,yelp_2_328,North,W,2057.0,
Pastoral,(773) 472-4781,2945 N Broadway,60657,Cheese Shops,,yelp_2_330,Broadway,N,2945.0,
Dinosaur Bar-B-Que,(312) 462-1053,923 W Weed St,60642,Barbeque,,yelp_2_333,Weed,W,923.0,
LC Pho,(872) 208-7606,2739 W Lawrence Ave,60625,Vietnamese,,yelp_2_335,Lawrence,W,2739.0,
Rub’s Backcountry Smokehouse,(773) 675-1410,6954 N Western Ave,60645,Barbeque,,yelp_2_339,Western,N,6954.0,
Athenian Room,(773) 348-5155,807 W Webster Ave,60614,Greek,,yelp_2_341,Webster,W,807.0,
Over Easy Cafe,(773) 506-2605,4943 N Damen Ave,60625,Breakfast & Brunch,,yelp_2_346,Damen,N,4943.0,
bellyQ,(312) 563-1010,1400 W Randolph St,60607,Barbeque,,yelp_2_353,Randolph,W,1400.0,
Takito Kitchen,(773) 687-9620,2013 W Division St,60622,Mexican,,yelp_2_355,Division,W,2013.0,
La Lagartija Taqueria,(312) 733-7772,132 S Ashland Ave,60607,Latin American,,yelp_2_356,Ashland,S,132.0,
Vincent,(773) 334-7168,1475 W Balmoral Ave,60640,American (New),,yelp_2_358,Balmoral,W,1475.0,
RPM Italian,(312) 222-1888,52 W Illinois St,60654,Italian,,yelp_2_360,Illinois,W,52.0,
Simply It,(773) 248-0884,2269 N Lincoln Ave,60614,Vietnamese,,yelp_2_362,Lincoln,N,2269.0,
Punta Cana Restaurant,(773) 292-7400,2200 N Kimball Ave,60647,Dominican,,yelp_2_364,Kimball,N,2200.0,
Sol de Mexico,(773) 282-4119,3018 N Cicero Ave,60641,Mexican,,yelp_2_366,Cicero,N,3018.0,
Zam Zam Middle Eastern Grill,(872) 802-3601,3461 N Clark St,60657,Middle Eastern,,yelp_2_367,Clark,N,3461.0,
The Happy Crab,(312) 985-8818,810 W Jackson Blvd,60607,Seafood,,yelp_2_369,Jackson,W,810.0,
The Bongo Room,(773) 489-0690,1470 N Milwaukee Ave,60622,American (New),,yelp_2_370,Milwaukee,N,1470.0,
Shokolad,(773) 276-6402,2524 W Chicago Ave,60622,Bakeries,,yelp_2_371,Chicago,W,2524.0,
Burger Bar,(312) 988-0162,1150 S Michigan Ave,60605,Burgers,,yelp_2_373,Michigan,S,1150.0,
La Palma Puerto Rican Restaurant,(773) 862-0886,1340 N Homan Ave,60651,Latin American,,yelp_2_374,Homan,N,1340.0,
Herb,(773) 944-9050,5424 N Broadway St,60640,Thai,,yelp_2_377,Broadway,N,5424.0,
Tank Noodle Restaurant,(773) 878-2253,4953 N Broadway,60640,Vietnamese,,yelp_2_382,Broadway,N,4953.0,
Mity Nice Bar & Grill,(312) 335-4745,835 N Michigan Ave,60611,American (New),,yelp_2_384,Michigan,N,835.0,
Pasta Palazzo,(773) 248-1400,1966 N Halsted St,60614,Italian,,yelp_2_386,Halsted,N,1966.0,
Bandera Restaurant,(312) 644-3524,535 N Michigan Ave,60611,Jazz & Blues,,yelp_2_387,Michigan,N,535.0,
Angelo’s Wine Bar,(773) 539-0111,3026 W Montrose Ave,60618,Gastropubs,,yelp_2_389,Montrose,W,3026.0,
Filippo’s Ristorante,(773) 528-2211,2211 N Clybourn Ave,60614,Italian,,yelp_2_392,Clybourn,N,2211.0,
Sam & George’s,(773) 935-4025,3000 N Lincoln Ave,60657,Breakfast & Brunch,,yelp_2_393,Lincoln,N,3000.0,
Chef Luciano,(312) 326-0062,49 E Cermak Rd,60616,Indian,,yelp_2_395,Cermak,E,49.0,
Q-BBQ,(773) 281-7800,714 W Diversey Pkwy,60614,Barbeque,,yelp_2_396,Diversey,W,714.0,
Fennel & Iris,(773) 687-8442,1652 W Belmont Ave,60657,American (New),,yelp_2_397,Belmont,W,1652.0,
Tre Kronor,(773) 267-9888,3258 W Foster Ave,60625,Breakfast & Brunch,,yelp_2_399,Foster,W,3258.0,
Esencia Urban Kitchen,(773) 472-8553,3351 N Broadway St,60657,Cafes,,yelp_2_402,Broadway,N,3351.0,
Buona Terra Ristorante,(773) 289-3800,2535 N California Ave,60647,Italian,,yelp_2_407,California,N,2535.0,
The Brass Monkey,(312) 763-3316,401 N Morgan St,60642,American (Traditional),,yelp_2_411,Morgan,N,401.0,
Big Star,(773) 235-4039,1531 N Damen,60622,Mexican,,yelp_2_412,Damen,N,1531.0,
Gilt Bar,(312) 464-9544,230 W Kinzie St,60654,American (New),,yelp_2_413,Kinzie,W,230.0,
Table Fifty-Two,(312) 573-4000,52 W Elm St,60610,American (Traditional),,yelp_2_415,Elm,W,52.0,
Glenns Diner,(773) 506-1720,1820 W Montrose Ave,60613,Diners,,yelp_2_417,Montrose,W,1820.0,
Bistrot Zinc,(312) 337-1131,1131 N State St,60610,French,,yelp_2_430,State,N,1131.0,
Runa Japanese,(773) 278-8887,2257 W North Ave,60647,Japanese,,yelp_2_433,North,W,2257.0,
Little Vietnam,(773) 944-0999,1132 W Bryn Mawr Ave,60640,Vietnamese,,yelp_2_435,Bryn Mawr,W,1132.0,
Angel’s,(312) 666-7253,230 S Ashland Ave,60607,Mexican,,yelp_2_436,Ashland,S,230.0,
El Faro Restaurant,(773) 277-1155,3936 W 31st St,60623,Mexican,,yelp_2_438,31St,W,3936.0,
Take Me Out,(312) 929-2509,1502 W 18th St,60608,Chinese,,yelp_2_439,18Th,W,1502.0,
Macello,(312) 850-9870,1235 W Lake St,60607,Italian,,yelp_2_441,Lake,W,1235.0,
Smashburger,(312) 800-9010,2031 N Clybourn,60614,Burgers,,yelp_2_447,Clybourn,N,2031.0,
Blue Frog’s Local 22,(312) 527-1200,22 E Hubbard St,60611,Bars,,yelp_2_448,Hubbard,E,22.0,
CoCo Vietnamese Sandwiches & Pho,(773) 516-4760,1613 W Lawrence Ave,60640,Vietnamese,,yelp_2_455,Lawrence,W,1613.0,
Lillie’s Q,(773) 772-5500,1856 W North Ave,60622,Barbeque,,yelp_2_457,North,W,1856.0,
Chez Moi,(773) 871-2100,2100 N Halsted St,60614,French,,yelp_2_463,Halsted,N,2100.0,
Rockit Burger Bar,(773) 645-4400,3700 N Clark St,60613,American (Traditional),,yelp_2_468,Clark,N,3700.0,
Dena Kitchen,(773) 697-3504,3306 W Fullerton Ave,60647,Thai,,yelp_2_471,Fullerton,W,3306.0,
Avec,(312) 377-2002,615 W Randolph St,60661,French,,yelp_2_476,Randolph,W,615.0,
La Villa,(773) 283-7980,3632 N Pulaski Rd,60641,Pizza,,yelp_2_477,Pulaski,N,3632.0,
Chicago’s Dog House,(773) 248-3647,816 W Fullerton Ave,60614,Hot Dogs,,yelp_2_480,Fullerton,W,816.0,
Tutto Fresco,(773) 281-1844,3829 N Broadway St,60613,Italian,,yelp_2_482,Broadway,N,3829.0,
Luxbar,(312) 642-3400,18 E Bellevue Pl,60611,American (Traditional),,yelp_2_483,Bellevue,E,18.0,
Tre Soldi,(312) 664-0212,212 E Ohio St,60611,Italian,,yelp_2_484,Ohio,E,212.0,
The Reservoir,(773) 275-4000,844 W Montrose,60613,American (New),,yelp_2_487,Montrose,W,844.0,
Fig & Olive,(312) 445-0060,104 E Oak St,60611,Mediterranean,,yelp_2_492,Oak,E,104.0,
Old Town Social,(312) 266-2277,455 W North Ave,60610,American (Traditional),,yelp_2_493,North,W,455.0,
Parachute,(773) 654-1460,3500 N Elston Ave,60618,Korean,,yelp_2_498,Elston,N,3500.0,
The Monarch,(773) 252-6053,1745 W North Ave,60622,American (New),,yelp_2_500,North,W,1745.0,
Perry’s,(312) 372-7557,180 N Franklin St,60606,Sandwiches,,yelp_2_503,Franklin,N,180.0,
Dimo’s Pizza,(773) 525-4580,1615 N Damen Ave,60647,Specialty Food,,yelp_2_505,Damen,N,1615.0,
Sushi Tokoro,(773) 654-3858,4750 N Western Ave,60625,Japanese,,yelp_2_508,Western,N,4750.0,
Mia Figlia,(773) 792-8300,5304 W Devon Ave,60646,Italian,,yelp_2_510,Devon,W,5304.0,
La Parrilla Colombian Steakhouse,(773) 777-7720,6427 W Irving Park Rd,60634,Latin American,,yelp_2_522,Irving,W,6427.0,
Coco’s Famous Deep Fried Lobster,(312) 786-2070,426 S Clark St,60605,Seafood,,yelp_2_524,Clark,S,426.0,
Sepia,(312) 441-1920,123 N Jefferson St,60661,American (New),,yelp_2_528,Jefferson,N,123.0,
Pho’s Spicier Thai Cuisine,(773) 755-1995,3332 N Lincoln Ave,60657,Thai,,yelp_2_529,Lincoln,N,3332.0,
Sunda,(312) 644-0500,110 W Illinois St,60654,Asian Fusion,,yelp_2_532,Illinois,W,110.0,
Tom Yum Cafe,(773) 270-5646,608 W Barry Ave,60657,Thai,,yelp_2_534,Barry,W,608.0,
Tarboush Mediterranean Grill,(773) 770-3599,1608 W North Ave,60622,Mediterranean,,yelp_2_535,North,W,1608.0,
Hub 51,(312) 828-0051,51 W Hubbard St,60654,American (New),,yelp_2_536,Hubbard,W,51.0,
m.henry,(773) 561-1600,5707 N Clark St,60660,Breakfast & Brunch,,yelp_2_538,Clark,N,5707.0,
Brgrbelly,(773) 283-7880,5739 W Irving Park Rd,60634,Burgers,,yelp_2_542,Irving,W,5739.0,
Nico Osteria,(312) 994-7100,1015 N Rush St,60611,Italian,,yelp_2_544,Rush,N,1015.0,
Restaurant Veneno De Nayarit,(773) 252-7200,1024 N Ashland Ave,60622,Seafood,,yelp_2_545,Ashland,N,1024.0,
Gio’s Cafe and Deli,(312) 225-6368,2724 S Lowe Ave,60616,Delis,,yelp_2_546,Lowe,S,2724.0,
Cafe Bella,(773) 292-5040,3311 W Fullerton Ave,60647,Latin American,,yelp_2_548,Fullerton,W,3311.0,
Cafe Selmarie,(773) 989-5595,4729 N Lincoln Ave,60625,Bakeries,,yelp_2_549,Lincoln,N,4729.0,
Las Tablas Colombian Steakhouse,(773) 871-2414,2942 N Lincoln Ave,60657,Steakhouses,,yelp_2_550,Lincoln,N,2942.0,
BIG & little’s Restaurant,(773) 857-6677,1034 W Belmont Ave,60657,American (New),,yelp_2_554,Belmont,W,1034.0,
Mish Grill,(773) 661-9766,1413 N Ashland Ave,60622,Mediterranean,,yelp_2_557,Ashland,N,1413.0,
Nhu Lan Bakery,(773) 878-9898,2612 W Lawrence Ave,60625,Vietnamese,,yelp_2_561,Lawrence,W,2612.0,
Star Kitchen,(312) 631-3795,3110 S Shields Ave,60616,Asian Fusion,,yelp_2_564,Shields,S,3110.0,
Del Seoul,(773) 248-4227,2568 N Clark St,60614,Korean,,yelp_2_565,Clark,N,2568.0,
Allende Restaurant,(773) 477-7114,2408 N Lincoln Ave,60614,Mexican,,yelp_2_566,Lincoln,N,2408.0,
Bistro Dre,(773) 697-9067,2965 N Lincoln Ave,60657,Desserts,,yelp_2_567,Lincoln,N,2965.0,
Uncommon Ground,(773) 929-3680,3800 N Clark St,60613,Bars,,yelp_2_569,Clark,N,3800.0,
Bongiorno’s Italian Deli & Pizzeria,(312) 755-1255,405 N Wabash Ave,60611,Pizza,,yelp_2_570,Wabash,N,405.0,
Falafel & Grill,(773) 292-8888,1317 N Milwaukee Ave,60622,"Middle Eastern,Men's Clothing,Lounges",,yelp_2_573,Milwaukee,N,1317.0,
La Ciudad,(773) 728-2887,4515 N Sheridan Rd,60640,Mexican,,yelp_2_581,Sheridan,N,4515.0,
The Bongo Room,(312) 291-0100,1152 S Wabash Ave,60605,Breakfast & Brunch,,yelp_2_583,Wabash,S,1152.0,
Diez Y Ocho,(312) 265-1630,2000 W 18th St,60608,Chicken Wings,,yelp_2_584,18Th,W,2000.0,
Ramen-san,(312) 377-9950,59 W Hubbard St,60654,Ramen,,yelp_2_585,Hubbard,W,59.0,
Compass Bar,(773) 248-3230,433 W Diversey Pkwy,60614,Pizza,,yelp_2_590,Diversey,W,433.0,
Ora,(773) 506-2978,5143 N Clark St,60640,Sushi Bars,,yelp_2_591,Clark,N,5143.0,
Rose Angelis,(773) 296-0081,1314 W Wrightwood Ave,60614,Italian,,yelp_2_592,Wrightwood,W,1314.0,
Janik’s Cafe,(773) 276-7930,2011 W Division St,60622,American (Traditional),,yelp_2_594,Division,W,2011.0,
La Plena Restaurant,(773) 276-5795,2617 W Division St,60622,Puerto Rican,,yelp_2_596,Division,W,2617.0,
Francesca’s On Taylor,(312) 829-2828,1400 W Taylor St,60607,Italian,,yelp_2_606,Taylor,W,1400.0,
Sun Wah Bar-B-Que,(773) 769-1254,5041 N Broadway,60640,Chinese,,yelp_2_610,Broadway,N,5041.0,
Slurping Turtle,(312) 464-0466,116 W Hubbard St,60654,Japanese,,yelp_2_611,Hubbard,W,116.0,
Talay Chicago,(312) 733-0812,1222 W Madison St,60607,Thai,,yelp_2_614,Madison,W,1222.0,
La Oaxaqueña,(773) 545-8585,3382 N Milwaukee Ave,60641,Mexican,,yelp_2_616,Milwaukee,N,3382.0,
Jess Cafe,(773) 637-2717,5819 W Belmont Ave,60634,Chinese,,yelp_2_621,Belmont,W,5819.0,
Aquitaine,(773) 698-8456,2221 N Lincoln Ave,60614,American (Traditional),,yelp_2_623,Lincoln,N,2221.0,
Labriola Chicago: La Stanza Ristorante and Labriola Cafe,(312) 955-3100,535 N Michigan Ave,60611,Italian,,yelp_2_624,Michigan,N,535.0,
GT Fish & Oyster,(312) 929-3501,531 N Wells St,60654,Seafood,,yelp_2_627,Wells,N,531.0,
Kaiser Tiger,(312) 243-3100,1415 W Randolph St,60607,American (New),,yelp_2_628,Randolph,W,1415.0,
Anna’s Asian Grill & Sushi Bar,(773) 975-3404,1804 W Irving Park Rd,60613,Sushi Bars,,yelp_2_630,Irving,W,1804.0,
Folklore Argentine Grill,(773) 292-1600,2100 W Division St,60622,Argentine,,yelp_2_635,Division,W,2100.0,
In-On Thai,(773) 857-2475,3821 N Broadway St,60613,Thai,,yelp_2_636,Broadway,N,3821.0,
King Garden,(773) 745-3333,6954 W North Ave,60707,Chinese,,yelp_2_637,North,W,6954.0,
Gale Street Inn,(773) 725-1300,4914 N Milwaukee Ave,60630,American (Traditional),,yelp_2_638,Milwaukee,N,4914.0,
Roka Akor - Chicago,(312) 477-7652,456 N Clark St,60654,Sushi Bars,,yelp_2_639,Clark,N,456.0,
Asian Outpost,(312) 662-1100,1315 S Wabash Ave,60605,Sushi Bars,,yelp_2_643,Wabash,S,1315.0,
Wise Owl Drinkery & Cookhouse,(312) 374-8915,324 S Racine Ave,60607,Cocktail Bars,,yelp_2_646,Racine,S,324.0,
Krung Thep Thai Cuisine,(773) 296-2178,3205 N Halsted St,60657,Thai,,yelp_2_648,Halsted,N,3205.0,
Emperor’s Choice Restaurant,(312) 225-8800,2238 S Wentworth Ave,60616,Chinese,,yelp_2_650,Wentworth,S,2238.0,
Osteria La Madia,(312) 329-0400,59 W Grand Ave,60654,Pizza,,yelp_2_651,Grand,W,59.0,
Dawali Mediterranean Kitchen,(312) 944-5800,1625 N Halsted St,60614,Mediterranean,,yelp_2_653,Halsted,N,1625.0,
Siam Noodle and Rice,(773) 769-6694,4654 N Sheridan Rd,60640,Thai,,yelp_2_658,Sheridan,N,4654.0,
Tarantino’s,(773) 871-2929,1112 W Armitage Ave,60614,Italian,,yelp_2_663,Armitage,W,1112.0,
Gather,(773) 506-9300,4539 N Lincoln Ave,60625,Wine Bars,,yelp_2_665,Lincoln,N,4539.0,
Wildfire,(312) 787-9000,159 W Erie St,60654,"American (Traditional),遊園地,ショッピングセンター",,yelp_2_666,Erie,W,159.0,
Goose Island Shrimp House Chicago,(312) 642-3640,1013 W Division St,60642,Seafood,,yelp_2_672,Division,W,1013.0,
Las Palmas,(773) 289-4991,1835 W North Ave,60622,Mexican,,yelp_2_673,North,W,1835.0,
Danny’s Egghead Diner,(773) 857-0171,2012 W Irving Park Rd,60618,Breakfast & Brunch,,yelp_2_675,Irving,W,2012.0,
Crisp,(773) 697-7610,2940 N Broadway Ave,60657,Korean,,yelp_2_676,Broadway,N,2940.0,
MAK Restaurant,(773) 772-6251,1924 W Division St,60622,Asian Fusion,,yelp_2_677,Division,W,1924.0,
Rolls ‘N Bowls,(773) 728-2939,5501 N Lincoln Ave,60625,Sushi Bars,,yelp_2_679,Lincoln,N,5501.0,
Smoke Daddy,(773) 772-6656,1804 W Division St,60622,"Barbeque,Burgers,American (Traditional),Wine Bars,Wine Bars",,yelp_2_681,Division,W,1804.0,
"Joe’s Seafood, Prime Steak & Stone Crab",(312) 379-5637,60 E Grand Ave,60611,Seafood,,yelp_2_686,Grand,E,60.0,
River Roast,(312) 822-0100,315 N La Salle Dr,60654,American (Traditional),,yelp_2_687,La Salle,N,315.0,
Kathy De’s Deli,(773) 373-2688,3642 S Parnell Ave,60609,Delis,,yelp_2_690,Parnell,S,3642.0,
Fish N Go,(773) 961-8235,4749 N Pulaski Rd,60625,Seafood,,yelp_2_691,Pulaski,N,4749.0,
Home Style Taste Chinese,(312) 949-9328,3205 S Halsted St,60608,Chinese,,yelp_2_694,Halsted,S,3205.0,
ZED451,(312) 266-6691,739 N Clark St,60654,Steakhouses,,yelp_2_699,Clark,N,739.0,
Dunlays on Clark,(773) 883-6000,2600 N Clark St,60614,Burgers,,yelp_2_700,Clark,N,2600.0,
Chengdu Impression,(773) 477-6256,2545 N Halsted St,60614,Szechuan,,yelp_2_703,Halsted,N,2545.0,
Mama Milano’s Pizza Bar,(312) 787-3710,1419 N Wells St,60610,Pizza,,yelp_2_704,Wells,N,1419.0,
Ceviche,(773) 235-4500,2554 W Diversey Ave,60647,Seafood,,yelp_2_706,Diversey,W,2554.0,
Roti Mediterranean Grill,(312) 775-7000,10 S Riverside Plz,60606,Mediterranean,,yelp_2_707,Riverside,S,10.0,
Le Colonial,(312) 255-0088,937 N Rush St,60611,Vietnamese,,yelp_2_708,Rush,N,937.0,
Ceres Cafe,(312) 427-3443,141 W Jackson Blvd,60604,American (Traditional),,yelp_2_710,Jackson,W,141.0,
Ani,(872) 206-8553,3056 N Lincoln Ave,60657,"Japanese,Sushi Bars",,yelp_2_712,Lincoln,N,3056.0,
Paramount Room,(312) 829-6300,415 N Milwaukee Ave,60654,"American (New),Breakfast & Brunch,American (New)",,yelp_2_713,Milwaukee,N,415.0,
Taqueria Los Comales 3,(312) 666-2251,1544 W 18th St,60608,Mexican,,yelp_2_714,18Th,W,1544.0,
Davanti Enoteca River North,(312) 605-5900,30 E Hubbard St,60611,Italian,,yelp_2_715,Hubbard,E,30.0,
The Ogden,(312) 226-1888,1659 W Ogden Ave,60612,Sports Bars,,yelp_2_718,Ogden,W,1659.0,
Mercadito Kitchen,(312) 640-8141,10 E Delaware Pl,60611,Mexican,,yelp_2_719,Delaware,E,10.0,
Cafe Ba-Ba-Reeba!,(773) 935-5000,2024 N Halsted St,60614,Tapas/Small Plates,,yelp_2_723,Halsted,N,2024.0,
Cafe Orient 33,(773) 509-6538,4829 N Kedzie Ave,60625,Korean,,yelp_2_724,Kedzie,N,4829.0,
Quartino,(312) 698-5000,626 N State St,60654,Tapas Bars,,yelp_2_725,State,N,626.0,
Honey Butter Fried Chicken,(773) 478-4000,3361 N Elston Ave,60618,American (Traditional),,yelp_2_727,Elston,N,3361.0,
Keren Kitchen,(773) 472-9090,1513 W Irving Pk RdSte 1,60613,Ethiopian,,yelp_2_729,Irving,W,1513.0,
River Valley Ranch & Kitchens,(872) 208-3267,1820 W Wilson Ave,60640,Cafes,,yelp_2_733,Wilson,W,1820.0,
Kuma’s Corner,(773) 604-8769,2900 W Belmont Ave,60618,Pubs,,yelp_2_734,Belmont,W,2900.0,
The Local Chicago,(312) 280-8887,198 E Delaware Pl,60611,American (Traditional),,yelp_2_735,Delaware,E,198.0,
Bavette’s Bar & Boeuf,(312) 624-8154,218 W Kinzie St,60654,Steakhouses,,yelp_2_736,Kinzie,W,218.0,
The Publican,(312) 733-9555,837 W Fulton Market,60607,American (New),,yelp_2_746,Fulton Market,W,837.0,
Tacos la Banqueta,(214) 324-4445,7233 Gaston Ave,75214,Mexican,,yelp_2_752,Gaston,,7233.0,
Mesero - Henderson,(214) 821-6426,2822 N Henderson Ave,75206,Mexican,,yelp_2_756,Henderson,N,2822.0,
Bolsa,(214) 367-9367,614 W Davis St,75208,American (New),,yelp_2_759,Davis,W,614.0,
Perry’s Steakhouse & Grille - Uptown,(214) 855-5151,2000 McKinney AveSte 100,75201,Steakhouses,,yelp_2_760,Mckinney Aveste 100,,2000.0,
Rapscallion,(469) 291-5660,2023 Greenville AveSte 110,75206,American (New),,yelp_2_761,Greenville Aveste 110,,2023.0,
Stock & Barrel,(214) 888-0150,316 Davis St,75208,American (Traditional),,yelp_2_762,Davis,,316.0,
Pera Mediterranean Grill,(214) 484-7706,2633 McKinney AveSte 170,75204,Mediterranean,,yelp_2_763,Mckinney Aveste 170,,2633.0,
The Rustic,(214) 730-0596,3656 Howell St,75204,"Bars,Gastropub,Cucina americana (tradizionale)",,yelp_2_765,Howell,,3656.0,
Lyfe Kitchen - West Village,(214) 526-5933,3699 Mckinney AveSte A-221,75204,American (New),,yelp_2_767,Mckinney Aveste A- 221,,3699.0,
FT33,(214) 741-2629,1617 Hi Line DrSte 250,75207,American (New),,yelp_2_768,Hi Line Drste 250,,1617.0,
Henk’s European Deli & Black Forest Bakery,(214) 987-9090,5811 Blackwell St,75231,Bakeries,,yelp_2_769,Blackwell,,5811.0,
Blind Butcher,(214) 887-0000,1919 Greenville Ave,75206,American (New),,yelp_2_772,Greenville,,1919.0,
Joyce & Gigi’s Kitchen,(469) 334-0799,1623 N Hall St,75204,Brazilian,,yelp_2_773,Hall,N,1623.0,
Kozy Kitchen,(214) 219-5044,4433 McKinney Ave,75205,Bakeries,,yelp_2_774,Mckinney,,4433.0,
Toulouse Café and Bar,(214) 520-8999,3314 Knox St,75205,French,,yelp_2_775,Knox,,3314.0,
Rex’s Seafood Market,(214) 351-6363,5200 W Lovers Ln,75209,Seafood,,yelp_2_778,Lovers,W,5200.0,
Knife,(214) 443-9339,5300 E Mockingbird Ln,75206,Steakhouses,,yelp_2_780,Mockingbird,E,5300.0,
Cedars Mediterranean Mezza & Grill,(214) 373-8141,8141 Walnut Hill LnSte 1200,75231,Mediterranean,,yelp_2_781,Walnut,,8141.0,
Daddy Jack’s,(214) 826-4910,1916 Greenville Ave,75206,Seafood,,yelp_2_782,Greenville,,1916.0,
CBD Provisions,(214) 261-4500,1530 Main St,75201,Brasseries,,yelp_2_783,Main,,1530.0,
Jonathon’s Oak Cliff,(214) 946-2221,1111 N Beckley Ave,75203,American (New),,yelp_2_785,Beckley,N,1111.0,
Pappas Bros Steakhouse,(214) 366-2000,10477 Lombardy Ln,75220,Steakhouses,,yelp_2_786,Lombardy,,10477.0,
Hibiscus,(214) 827-2927,2927 N Henderson Ave,75206,"American (New),Pizza,Southern,Gastropubs",,yelp_2_787,Henderson,N,2927.0,
The Foundry,(214) 749-1112,2303 Pittman St,75208,American (New),,yelp_2_788,Pittman,,2303.0,
Bona Pizza,(214) 351-1888,4218 W Lovers LnSte A,75209,Pizza,,yelp_2_789,Lovers Lnste A,W,4218.0,
Mama’s Daughters’ Diner,(214) 742-8646,2014 Irving Blvd,75207,Soul Food,,yelp_2_792,Irving,,2014.0,
Twisted Root Burger Co.,(214) 741-7668,2615 Commerce St,75226,Burgers,,yelp_2_793,Commerce,,2615.0,
El Tacaso,(469) 335-9055,10025 Harry Hines Blvd,75220,Mexican,,yelp_2_799,Harry Hines,,10025.0,
Si Tapas,(214) 720-0324,2207 Allen St,75204,Spanish,,yelp_2_800,Allen,,2207.0,
Mike Anderson’s BBQ House,(214) 630-0735,5410 Harry Hines Blvd,75235,Barbeque,,yelp_2_801,Harry Hines,,5410.0,
Grub Burger Bar,(972) 370-3636,4925 Greenville Ave,75206,Bars,,yelp_2_802,Greenville,,4925.0,
Mimi’s Pizzeria,(972) 215-7290,6807 W Northwest Hwy,75225,Italian,,yelp_2_804,Northwest,W,6807.0,
Hopdoddy Burger Bar,(214) 871-2337,3227 McKinney AveSte 102,75204,Burgers,,yelp_2_806,Mckinney Aveste 102,,3227.0,
20 Feet Seafood Joint,(972) 707-7442,1160 Peavy Rd,75218,Seafood,,yelp_2_807,Peavy,,1160.0,
Roman Cucina,(972) 716-9950,7989 Belt Line RdSte 315,75248,Italian,,yelp_2_808,Belt Line Rdste 315,,7989.0,
Olivella’s Neo Pizza Napoletana,(214) 522-9898,2340 Victory Park Ln,75219,Pizza,,yelp_2_809,Victory,,2340.0,
Bread Winners Cafe & Bakery,(214) 754-4940,3301 McKinney Ave,75204,American (New),,yelp_2_813,Mckinney,,3301.0,
The Mint,(214) 219-6468,4246 Oak Lawn Ave,75219,Thai,,yelp_2_814,Oak Lawn,,4246.0,
Shell Shack,(877) 434-1411,2916 Mckinney Ave,75204,Seafood,,yelp_2_817,Mckinney,,2916.0,
Mia’s Tex-Mex Restaurant,(214) 526-1020,4322 Lemmon Ave,75219,Tex-Mex,,yelp_2_818,Lemmon,,4322.0,
Blue Sushi Sake Grill,(972) 677-7887,7859 Walnut Hill LnSte 100,75230,"Sushi Bars,Sushi Bars",,yelp_2_819,Walnut,,7859.0,
Tippy’s Thai Cafe,(972) 458-2233,12835 Preston RdSte 310,75230,Thai,,yelp_2_820,Preston Rdste 310,,12835.0,
Pakpao Thai Food,(214) 749-7002,1628 Oak Lawn AveSte 120,75207,Thai,,yelp_2_823,Oak Lawn Aveste 120,,1628.0,
Koryo Kalbi Korean BBQ,(972) 406-0087,2560 Royal LnSte 105,75229,Korean,,yelp_2_824,Royal Lnste 105,,2560.0,
The Boiling Crab,(972) 272-7086,10560 Walnut StSte 100,75243,Cajun/Creole,,yelp_2_825,Walnut Stste 100,,10560.0,
Carbone’s,(214) 522-4208,4208 Oak Lawn Ave,75219,Wine Bars,,yelp_2_826,Oak Lawn,,4208.0,
R+D Kitchen,(214) 890-7900,8300 Preston Ctr Plz,75225,American (New),,yelp_2_827,Preston,,8300.0,
Sissy’s Southern Kitchen & Bar,(214) 827-9900,2929 N Henderson Ave,75206,Southern,,yelp_2_828,Henderson,N,2929.0,
Vickery Park,(214) 827-1432,2810 N Henderson Ave,75206,Bars,,yelp_2_830,Henderson,N,2810.0,
DISH Preston Hollow,(214) 363-3474,8611 Hillcrest AveSte100,75225,American (New),,yelp_2_832,Hillcrest Aveste 100,,8611.0,
Nonna Restaurant,(214) 521-1800,4115 Lomo Alto Dr,75219,Italian,,yelp_2_834,Lomo Alto,,4115.0,
Palapas Seafood Bar,(214) 824-3000,1418 Greenville Ave,75243,Seafood,,yelp_2_841,Greenville,,1418.0,
Harvey B’s,(469) 334-0980,4506 Columbia AveSte 100,75226,Burgers,,yelp_2_843,Columbia Aveste 100,,4506.0,
Founder’s Square Deli,(214) 712-5900,900 Jackson St.Suite B-1,75202,Delis,,yelp_2_844,,,,
Twisted Root Burger Co.,(214) 361-2910,5609 SMU BlvdSuite 102,75206,"Burgers,墨西哥菜,快餐車",,yelp_2_847,Smu Blvdsuite 102,,5609.0,
Local,(214) 752-7500,2936 Elm St,75226,American (New),,yelp_2_848,Elm,,2936.0,
VertsKebap,(469) 726-2855,7949 Walnut Hill Ln,75230,Mediterranean,,yelp_2_850,Walnut,,7949.0,
Ziziki’s,(214) 521-2233,4514 Travis StSte 122,75205,Greek,,yelp_2_852,Travis Stste 122,,4514.0,
Torteria Insurgentes,(214) 366-2624,3701 W Northwest HwySte 310,75220,Mexican,,yelp_2_853,Northwest Hwyste 310,W,3701.0,
Truluck’s,(214) 220-2401,2401 McKinney Ave,75201,Steakhouses,,yelp_2_854,Mckinney,,2401.0,
Royal Thai,(214) 691-3555,5500 Greenville Ave,75206,Thai,,yelp_2_856,Greenville,,5500.0,
Twenty Seven,(972) 803-3265,2901 Elm St,75226,American (New),,yelp_2_857,Elm,,2901.0,
Hypnotic Donuts,(214) 668-6999,9007 Garland Rd,75218,Donuts,,yelp_2_858,Garland,,9007.0,
Ellen’s Southern Kitchen,(469) 206-3339,1718 N Market St,75202,Southern,,yelp_2_860,Market,N,1718.0,
The Local Oak,(214) 946-4625,409 N Zang Blvd,75208,American (Traditional),,yelp_2_862,Zang,N,409.0,
Cowboy Chicken,(214) 234-0505,5315 Greenville AveSte 125,75206,American (Traditional),,yelp_2_867,Greenville Aveste 125,,5315.0,
Baboush,(214) 599-0707,3636 Mckinney AveSte 160,75204,Moroccan,,yelp_2_869,Mckinney Aveste 160,,3636.0,
Dive Coastal Cuisine,(214) 891-1700,3404 Rankin St,75205,Seafood,,yelp_2_871,Rankin,,3404.0,
Pepe’s & Mito’s Mexican Café,(214) 741-1901,2911 Elm St,75226,Mexican,,yelp_2_874,Elm,,2911.0,
Bugatti Ristorante,(214) 350-2470,3802 W Northwest Hwy,75220,Italian,,yelp_2_875,Northwest,W,3802.0,
Flying Horse Cafe - Liquid Culture,(214) 741-1731,The Hotel Magnolia1401 A Commerce St,75201,American (New),,yelp_2_878,The Hotel Magnolia 1401 A Commerce,,-1.0,
Thai Thai Restaurant,(214) 828-9795,1731 Greenville Ave,75206,Thai,,yelp_2_879,Greenville,,1731.0,
Taco Joint,(214) 826-8226,911 N Peak St,75204,Mexican,,yelp_2_880,Peak,N,911.0,
Ms. Daisy Fish and Cajun,(972) 290-0832,5555 Preston Oaks RdSte 5,75254,Cajun/Creole,,yelp_2_884,Preston Oaks Rdste 5,,5555.0,
Havana Cafe,(214) 660-9611,1152 Buckner BlvdSte J-126,75218,Cuban,,yelp_2_885,Buckner Blvdste J- 126,,1152.0,
Luscher’s Red Hots,(214) 434-1006,2653 Commerce St,75226,Hot Dogs,,yelp_2_886,Commerce,,2653.0,
Liberty Burger,(972) 239-2100,5211 Forest Ln,75244,Burgers,,yelp_2_887,Forest,,5211.0,
Lucky’s Cafe,(214) 522-3500,3531 Oak Lawn Ave,75219,American (Traditional),,yelp_2_888,Oak Lawn,,3531.0,
Le Taco Cantina,(469) 802-6753,2808 Oak Lawn,75219,Mexican,,yelp_2_889,Oak Lawn,,2808.0,
St. Pete’s Dancing Marlin,(214) 698-1511,2730 Commerce St,75226,American (Traditional),,yelp_2_891,Commerce,,2730.0,
Spice In The City Dallas,(469) 554-0348,1512 Commerce StSte 101,75201,Indian,,yelp_2_892,Commerce Stste 101,,1512.0,
Chiladas,(214) 365-9900,4448 Lovers Ln,75225,Tex-Mex,,yelp_2_893,Lovers,,4448.0,
Remedy,(469) 294-4012,2010B Greenville Ave,75206,American (Traditional),,yelp_2_894,Greenville,,2010.0,
Y O Ranch Steakhouse,(214) 744-3287,702 Ross Ave,75202,Steakhouses,,yelp_2_895,Ross,,702.0,
Digg’s Taco Shop,(469) 930-9504,7325 Gaston AveSte 110,75214,Tex-Mex,,yelp_2_896,Gaston Aveste 110,,7325.0,
Cafe Brazil,(214) 461-8762,3847 Cedar Springs Rd,75219,Breakfast & Brunch,,yelp_2_897,Cedar,,3847.0,
Olivella’s By SMU,(214) 528-7070,3406 McFarlin Blvd,75205,Pizza,,yelp_2_898,Mcfarlin,,3406.0,
Cosmic Café,(214) 521-6157,2912 Oak Lawn Ave,75219,Vegetarian,,yelp_2_899,Oak Lawn,,2912.0,
El Bolero,(214) 741-1986,1201 Oak Lawn Ave,75207,Mexican,,yelp_2_900,Oak Lawn,,1201.0,
Riverside Grill,(214) 655-6300,940 N Riverfront Blvd,75207,American (Traditional),,yelp_2_901,Riverfront,N,940.0,
Nick & Sam’s,(214) 871-7444,3008 Maple Ave,75201,Steakhouses,,yelp_2_902,Maple,,3008.0,
Nora Restaurant and Bar,(214) 828-0095,1928 Greenville Ave,75206,Afghan,,yelp_2_904,Greenville,,1928.0,
Sykamore Vegan House,(214) 826-0305,4029 Crutcher St,75246,Juice Bars & Smoothies,,yelp_2_906,Crutcher,,4029.0,
Lockhart Smokehouse,(214) 944-5521,400 W Davis St,75208,Barbeque,,yelp_2_907,Davis,W,400.0,
Nasher Cafe by Wolfgang Puck,(214) 242-5118,2001 Flora St,75201,American (New),,yelp_2_908,Flora,,2001.0,
Super Chix,(972) 788-0660,14999 Preston RdSte 226,75254,Ice Cream & Frozen Yogurt,,yelp_2_909,Preston Rdste 226,,14999.0,
Stephan Pyles,(214) 580-7000,1807 Ross Ave,75201,American (New),,yelp_2_910,Ross,,1807.0,
Aw Shucks,(214) 821-9449,3601 Greenville Ave,75206,Seafood,,yelp_2_911,Greenville,,3601.0,
Bangkok City,(214) 824-6200,4301 Bryan St,75204,Thai,,yelp_2_913,Bryan,,4301.0,
Avanti Ristorante,(214) 871-4955,2720 McKinney Ave,75204,Italian,,yelp_2_914,Mckinney,,2720.0,
Fadi’s Mediterranean Grill,(214) 528-1800,3001 Knox St.Ste 110,75205,Middle Eastern,,yelp_2_915,,,,
Off Site Kitchen,(214) 741-2226,311 Singleton BlvdSte 100,75212,Burgers,,yelp_2_916,Singleton Blvdste 100,,311.0,
El Rey Del Grill,(214) 559-3668,4535 Maple Ave,75219,Mexican,,yelp_2_917,Maple,,4535.0,
Crossroads Diner,(214) 346-3491,8121 Walnut Hill Ln,75231,Diners,,yelp_2_921,Walnut,,8121.0,
S&D Oyster Company,(214) 880-0111,2701 McKinney Ave,75204,Seafood,,yelp_2_923,Mckinney,,2701.0,
Original Market Diner,(214) 521-0992,4434 Harry Hines Blvd,75219,American (Traditional),,yelp_2_925,Harry Hines,,4434.0,
Southpaw’s Organic Café,(214) 987-0351,6009 Berkshire Ln,75225,Salad,,yelp_2_926,Berkshire,,6009.0,
Desperados Mexican Restaurant,(214) 363-1850,4818 Greenville Ave,75206,Mexican,,yelp_2_928,Greenville,,4818.0,
Taverna,(214) 520-9933,3312 Knox St,75205,Italian,,yelp_2_929,Knox,,3312.0,
Kostas Cafe,(214) 987-3225,4914 Greenville Ave,75206,Greek,,yelp_2_930,Greenville,,4914.0,
La Duni Latin Cafe,(214) 520-7300,4620 McKinney Ave,75205,"Latin American,Bakeries,Latin American,Coffee & Tea,Coffee & Tea",,yelp_2_931,Mckinney,,4620.0,
Taco Joint,(214) 821-8226,6434 E Mockingbird Ln,75214,Tex-Mex,,yelp_2_932,Mockingbird,E,6434.0,
Start,(214) 265-1411,4814 Greenville Ave,75206,Fast Food,,yelp_2_936,Greenville,,4814.0,
Asian Mint,(214) 363-6655,11617 N Central ExpySte 135,75243,Asian Fusion,,yelp_2_937,Central Expyste 135,N,11617.0,
Uchi,(214) 855-5454,2817 Maple Ave,75201,Japanese,,yelp_2_938,Maple,,2817.0,
Kessler Park Eating House,(214) 782-9273,1619 N Beckley Ave,75203,American (New),,yelp_2_940,Beckley,N,1619.0,
Tillman’s Roadhouse,(214) 942-0988,324 W 7th St,75208,Comfort Food,,yelp_2_943,7Th,W,324.0,
Mesa,(214) 941-4246,118 W Jefferson Blvd,75208,Mexican,,yelp_2_946,Jefferson,W,118.0,
CiboDivino Marketplace,(214) 653-2426,1868 Sylvan AveSte D100,75208,Italian,,yelp_2_948,Sylvan Aveste D 100,,1868.0,
Mario’s,(214) 599-9744,5404 Lemmon Ave,75209,Mexican,,yelp_2_950,Lemmon,,5404.0,
Garden Cafe,(214) 887-8330,5310 Junius St,75214,Breakfast & Brunch,,yelp_2_951,Junius,,5310.0,
Mi Cocina,(214) 521-6426,77 Highland Park Village,75205,Mexican,,yelp_2_952,Highland,,77.0,
Cafe Pacific,(214) 526-1170,24 Highland Park Village,75205,Seafood,,yelp_2_953,Highland,,24.0,
Luna’s Tortilla Factory,(214) 747-2661,8524 Harry Hines Blvd,75235,Mexican,,yelp_2_954,Harry Hines,,8524.0,
Torchy’s Tacos,(972) 993-8226,5600 SMU BlvdSte 102,75206,Tex-Mex,,yelp_2_955,Smu Blvdste 102,,5600.0,
Smokey John’s Bar-B-Que,(214) 352-2752,1820 W Mockingbird Ln,75235,Barbeque,,yelp_2_956,Mockingbird,W,1820.0,
Shivas Bar & Grill,(469) 250-1429,1907 Greenville Ave,75206,Indian,,yelp_2_958,Greenville,,1907.0,
Little Katana,(214) 443-9600,4527 Travis St,75205,Sushi Bars,,yelp_2_962,Travis,,4527.0,
Muscle Maker Grill,(214) 272-2210,2217 Greenville Ave,75206,American (Traditional),,yelp_2_963,Greenville,,2217.0,
Maracas,(214) 748-7140,2914 Main St,75226,Mexican,,yelp_2_964,Main,,2914.0,
Bangkok Dee Thai Cuisine,(214) 739-3436,10207 N Central Expwy,75231,Thai,,yelp_2_966,Central Expwy,N,10207.0,
Taqueria El Si Hay,(214) 941-4042,601 W Davis ST,75208,Mexican,,yelp_2_967,Davis,W,601.0,
Bob’s Steak & Chop House,(214) 652-4800,555 S Lamar St,75202,Steakhouses,,yelp_2_970,Lamar,S,555.0,
Chop House Burger,(214) 741-2747,1501 Main St,75201,Burgers,,yelp_2_973,Main,,1501.0,
Pappadeaux Seafood Kitchen,(214) 358-1912,10428 Lombardy Ln,75220,Seafood,,yelp_2_976,Lombardy,,10428.0,
Royal China,(214) 361-1771,6025 Royal LnSte 201,75230,Chinese,,yelp_2_977,Royal Lnste 201,,6025.0,
Tampopo Japanese Cafe,(214) 378-7676,6130 Greenville AveSte 100,75206,Japanese,,yelp_2_980,Greenville Aveste 100,,6130.0,
DaLat Vietnamese Restaurant & Bar,(214) 827-3200,2537 N Fitzhugh Ave,75204,Vietnamese,,yelp_2_981,Fitzhugh,N,2537.0,
Sushiya,(214) 744-9600,1306 Elm St,75202,Sushi Bars,,yelp_2_982,Elm,,1306.0,
Bandito’s Tex-Mex Cantina,(214) 750-6100,6615 Snider Plz,75205,Mexican,,yelp_2_986,Snider,,6615.0,
Yama Sushi,(972) 234-3474,8989 Forest LnSte 112,75243,Japanese,,yelp_2_987,Forest Lnste 112,,8989.0,
Cafe 43,(214) 200-4302,2943 SMU Blvd,75205,Cafes,,yelp_2_989,Smu,,2943.0,
Maki Boy,(972) 243-3777,2330 Royal Ln,75229,Japanese,,yelp_2_991,Royal,,2330.0,
Oddfellows,(214) 944-5958,316 W 7th St,75208,Breakfast & Brunch,,yelp_2_993,7Th,W,316.0,
Meso Maya,(214) 484-6555,1611 McKinney Ave,75202,Mexican,,yelp_2_994,Mckinney,,1611.0,
Little Greek Fresh Grill,(214) 696-1234,9665 N Central ExpySte 140,75231,Greek,,yelp_2_995,Central Expyste 140,N,9665.0,
Avilas Mexican Restaurant,(214) 520-2700,4714 Maple Ave,75219,Mexican,,yelp_2_996,Maple,,4714.0,
Woodlands On Forest,(972) 239-2024,6073 Forest Ln,75230,American (New),,yelp_2_997,Forest,,6073.0,
Better Burger,(214) 350-1414,5715 Lemmon Ave,75235,Burgers,,yelp_2_998,Lemmon,,5715.0,
Bread Winners Cafe & Bakery,(214) 351-3339,5560 W Lovers Ln,75209,Breakfast & Brunch,,yelp_2_1002,Lovers,W,5560.0,
Flaming Burger,(214) 321-3734,11255 Garland RdSte 101A,75228,Burgers,,yelp_2_1003,Garland Rdste 101A,,11255.0,
Atomic Pie,(214) 553-5733,9660 Audelia RdSte 117,75238,Pizza,,yelp_2_1004,Audelia Rdste 117,,9660.0,
The Social House,(214) 999-0046,2708 Routh St,75201,American (New),,yelp_2_1005,Routh,,2708.0,
Offshore’s Nextdoor,(214) 503-1012,9660 Audelia RdSte 304,75238,Seafood,,yelp_2_1007,Audelia Rdste 304,,9660.0,
Sevy’s Grill,(214) 265-7389,8201 Preston RdSte 100,75225,American (Traditional),,yelp_2_1010,Preston Rdste 100,,8201.0,
Norma’s Cafe,(214) 946-4711,1123 W Davis St,75208,Southern,,yelp_2_1012,Davis,W,1123.0,
Ziziki’s Restaurants,(469) 232-9922,11661 Preston RdSte 309,75230,Greek,,yelp_2_1013,Preston Rdste 309,,11661.0,
Alligator Cafe,(214) 821-6900,9540 Garland RdSte 362,75218,Cajun/Creole,,yelp_2_1014,Garland Rdste 362,,9540.0,
Flying Fish,(214) 696-3474,6126 Luther Ln,75225,Seafood,,yelp_2_1015,Luther,,6126.0,
Cafe Izmir,(214) 826-7788,3711 Greenville Ave,75206,"Middle Eastern,Deli",,yelp_2_1016,Greenville,,3711.0,
Komali,(214) 252-0200,4152 Cole Ave,75204,Mexican,,yelp_2_1018,Cole,,4152.0,
Stonedeck Pizza Pub,(469) 802-6742,2613 Elm St,75226,Pizza,,yelp_2_1023,Elm,,2613.0,
Dakota’s Restaurant,(214) 740-4001,600 N Akard StSte 3300,75201,Steakhouses,,yelp_2_1024,Akard Stste 3300,N,600.0,
Two Guys From Italy,(972) 247-6814,11637 Webb Chapel Rd,75229,Pizza,,yelp_2_1025,Webb Chapel,,11637.0,
ZuZu Fresh-Made Tex-Mex,(214) 828-2231,4140 Abrams Rd,75214,Mexican,,yelp_2_1026,Abrams,,4140.0,
True Food Kitchen,(214) 377-3333,"The Plaza at Preston Center8383 Preston Ctr Plz, Ste 100",75225,American (New),,yelp_2_1027,The,,-1.0,ste 100
Tei Tei Robata,(214) 828-2400,2906 N Henderson Ave,75206,Japanese,,yelp_2_1028,Henderson,N,2906.0,
Jerry’s Wood-Fired Dogs,(214) 750-7053,6340 Gaston Ave,75214,Hot Dogs,,yelp_2_1029,Gaston,,6340.0,
La Victoria,(214) 827-0101,1605 N Haskell Ave,75204,Mexican,,yelp_2_1034,Haskell,N,1605.0,
Burger Bueno,(972) 387-3400,13021 Coit Rd,75240,Burgers,,yelp_2_1035,Coit,,13021.0,
Zoës Kitchen,(214) 887-6330,2009 Abrams Pkwy,75214,Southern,,yelp_2_1036,Abrams,,2009.0,
LUCK - Local Urban Craft Kitchen,(469) 250-0679,3011 Gulden LnSte 112,75212,American (New),,yelp_2_1038,Gulden Lnste 112,,3011.0,
Urban Taco,(214) 922-7080,3411 McKinney Ave,75204,Mexican,,yelp_2_1039,Mckinney,,3411.0,
Kenny’s Italian Kitchen,(972) 661-9380,5100 Belt Line RdSte 764,75254,Italian,,yelp_2_1041,Belt Line Rdste 764,,5100.0,
The Crab Station - Oyster Bar,(972) 889-3888,9780 Walnut StSuite 270,75243,Seafood,,yelp_2_1042,Walnut Stsuite 270,,9780.0,
Alligator Cafe,(214) 748-6901,2912 Elm St,75226,Cajun/Creole,,yelp_2_1043,Elm,,2912.0,
Pappadeaux Seafood Kitchen,(214) 521-4700,3520 Oak Lawn Ave,75219,Cajun/Creole,,yelp_2_1044,Oak Lawn,,3520.0,
Taqueria El Paisano No 1,(214) 352-1259,2911 Lombardy LnSte 101,75220,Mexican,,yelp_2_1046,Lombardy Lnste 101,,2911.0,
Torchy’s Tacos,(214) 379-1550,14760 Preston RdSte 124,75254,Mexican,,yelp_2_1047,Preston Rdste 124,,14760.0,
Souk,(469) 458-2233,3011 Gulden LnSte 114,75212,Moroccan,,yelp_2_1051,Gulden Lnste 114,,3011.0,
Dream Cafe,(214) 954-0486,2800 Routh StSte 170,75201,Breakfast & Brunch,,yelp_2_1052,Routh Stste 170,,2800.0,
Greenville Avenue Pizza Company,(214) 826-5404,1923 Greenville Ave,75206,"Pizza,Pizza",,yelp_2_1053,Greenville,,1923.0,
Nick and Sam’s Grill,(214) 379-1111,8111 Preston RdSte 150,75225,American (New),,yelp_2_1054,Preston Rdste 150,,8111.0,
Fireside Pies,(214) 357-3800,7709 Inwood Rd,75209,Pizza,,yelp_2_1058,Inwood,,7709.0,
Salum Restaurant,(214) 252-9604,4152 Cole AveSte 103,75204,American (New),,yelp_2_1063,Cole Aveste 103,,4152.0,
C Senor,(214) 941-4766,330 W Davis St,75208,Cuban,,yelp_2_1065,Davis,W,330.0,
Jen’s Place,(972) 991-3663,4455 Alpha Rd,75244,Sandwiches,,yelp_2_1066,Alpha,,4455.0,
El Corazon de Tejas,(214) 943-8610,110 W Davis St,75208,Mexican,,yelp_2_1067,Davis,W,110.0,
Nobu Dallas,(214) 252-7000,400 Crescent Ct,75201,Japanese,,yelp_2_1068,Crescent,,400.0,
Zio Cecio,(214) 351-1100,4615 W Lovers Ln,75209,Italian,,yelp_2_1069,Lovers,W,4615.0,
The Standard Pour,(214) 935-1370,2900 McKinney Ave,75204,Lounges,,yelp_2_1072,Mckinney,,2900.0,
Le Bilboquet,(469) 730-2937,4514 Travis StSte 124,75205,French,,yelp_2_1073,Travis Stste 124,,4514.0,
Buzzbrews Kitchen,(214) 741-2801,2801 Commerce St,75226,American (Traditional),,yelp_2_1074,Commerce,,2801.0,
Eddie V’s Prime Seafood and Steak,(214) 890-1500,4023 Oak Lawn AveSte 110,75219,Steakhouses,,yelp_2_1075,Oak Lawn Aveste 110,,4023.0,
Pho Kitchen,(214) 706-3595,8687 N Central Expressway,75225,Vietnamese,,yelp_2_1076,Central,N,8687.0,
Liberty Burger,(214) 954-7223,5181 Keller Springs Rd,75248,Burgers,,yelp_2_1078,Keller,,5181.0,
Campuzano,(214) 526-0100,2618 Oak Lawn Ave,75219,Mexican,,yelp_2_1079,Oak Lawn,,2618.0,
Cindi’s NY Delicatessen Restaurant & Bakery,(972) 241-9204,3565 Forest Ln,75234,Delis,,yelp_2_1080,Forest,,3565.0,
Smoke,(214) 393-4141,901 Fort Worth Ave,75208,American (New),,yelp_2_1081,Fort Worth,,901.0,
Campuzano,(214) 526-0100,2618 Oak Lawn Ave,75219,Mexican,,yelp_2_1083,Oak Lawn,,2618.0,
Cindi’s NY Delicatessen Restaurant & Bakery,(972) 241-9204,3565 Forest Ln,75234,Delis,,yelp_2_1084,Forest,,3565.0,
Gloria’s Latin Cuisine,(214) 874-0088,3715 Greenville Ave,75206,Mexican,,yelp_2_1085,Greenville,,3715.0,
Hook Line & Sinker,(214) 965-0707,3103 Lemmon Ave,75204,Seafood,,yelp_2_1086,Lemmon,,3103.0,
Ai Sushi Sake Grill,(214) 468-4587,4123 Cedar Springs RdSte 102,75219,Sushi Bars,,yelp_2_1088,Cedar,,4123.0,
Rafa’s Cafe Mexicano,(214) 357-2080,5617 W Lovers Ln,75209,Mexican,,yelp_2_1091,Lovers,W,5617.0,
Ming Place China Bistro,(214) 350-8188,5715 Lemmon AveSte 3,75209,Chinese,,yelp_2_1092,Lemmon Aveste 3,,5715.0,
Asador,(214) 267-4815,Renaissance Dallas Hotel2222 N Stemmons Fwy,75207,American (New),,yelp_2_1094,Renaissance Dallas Hotel 2222 N Stemmons,,-1.0,
Saucy’s Thai & Pho,(214) 378-8424,5944 Royal Ln,75230,Thai,,yelp_2_1095,Royal,,5944.0,
Miss Chi Vietnamese,(214) 692-1000,6030 Luther LnSte 130,75225,Vietnamese,,yelp_2_1096,Luther Lnste 130,,6030.0,
Edohana Sushi,(214) 599-0093,3839 McKinney AveSte 130,75204,Sushi Bars,,yelp_2_1099,Mckinney Aveste 130,,3839.0,
Wild Salsa,(214) 741-9453,1800 Main StSte 100,75201,Mexican,,yelp_2_1101,Main Stste 100,,1800.0,
Sura Korean Bistro,(972) 243-5656,2240 Royal Ln,75229,Korean,,yelp_2_1102,Royal,,2240.0,
The Heights,(214) 824-5800,2015 Abrams Rd,75214,American (New),,yelp_2_1103,Abrams,,2015.0,
Half Shells Oyster Bar & Grill,(214) 691-8164,6617 Snider Plz,75205,Seafood,,yelp_2_1106,Snider,,6617.0,
Chuy’s,(214) 559-2489,4544 McKinney Ave,75205,Mexican,,yelp_2_1108,Mckinney,,4544.0,
Taqueria Latina,(214) 553-5100,6412 Skillman,75231,Mexican,,yelp_2_1109,Skillman,,6412.0,
Coal Vines,(214) 855-4999,2404 Cedar Springs RdSte 500,75201,Pizza,,yelp_2_1112,Cedar,,2404.0,
Veracruz Café,(214) 948-4746,408 N Bishop Ave,75295,Mexican,,yelp_2_1113,Bishop,N,408.0,
Dal Dong Ne,(972) 484-2994,11445 Emerald StSte 109,75229,Korean,,yelp_2_1116,Emerald Stste 109,,11445.0,
Oishii,(214) 599-9448,2525 Wycliff AveSte 110,75219,Sushi Bars,,yelp_2_1117,Wycliff Aveste 110,,2525.0,
The Free Man,(214) 377-9893,2626 Commerce St,75226,Cajun/Creole,,yelp_2_1119,Commerce,,2626.0,
Al Kabob Grill & Cafe,(972) 620-9300,11350 Harry Hines Blvd,75229,Indian,,yelp_2_1120,Harry Hines,,11350.0,
Taco Stop,(972) 971-4859,1900 Irving Blvd,75207,Mexican,,yelp_2_1121,Irving,,1900.0,
Kona Grill,(214) 369-7600,Northpark center8687 N Central Exwy,75225,American (New),,yelp_2_1123,Northpark,,-1.0,
Elaine’s Kitchen,(214) 565-1008,2717 Martin Luther King Junior Blvd,75215,Caribbean,,yelp_2_1124,Martin Luther King Junior,,2717.0,
Piggie Pies Pizza & Pasta,(214) 821-6465,5315 Greenville AveSte 120B,75206,Pizza,,yelp_2_1125,Greenville Aveste 120B,,5315.0,
Coconut’s Fish Cafe,(469) 729-9346,5600 W Lovers Ln,75209,Seafood,,yelp_2_1126,Lovers,W,5600.0,
Hunky’s Hamburgers,(214) 941-3322,321 N Bishop Ave,75208,Burgers,,yelp_2_1128,Bishop,N,321.0,
All Good Cafe,(214) 742-5362,2934 Main St,75226,Breakfast & Brunch,,yelp_2_1131,Main,,2934.0,
Angela’s Cafe,(214) 904-8122,7979 Inwood Rd,75209,Breakfast & Brunch,,yelp_2_1132,Inwood,,7979.0,
Sushi Bayashi at Trinity Groves,(972) 684-5906,3011 Gulden LnSte 106,75212,Sushi Bars,,yelp_2_1133,Gulden Lnste 106,,3011.0,
The Mercury,(972) 960-7774,11909 Preston RdSte 1418,75230,American (New),,yelp_2_1134,Preston Rdste 1418,,11909.0,
WaiWai Kitchen,(214) 520-8868,4315 Lemmon Ave,75219,Asian Fusion,,yelp_2_1136,Lemmon,,4315.0,
Sweet Georgia Brown Bar-B-Que Buffet,(214) 375-2020,2840 E Ledbetter Dr,75216,Barbeque,,yelp_2_1138,Ledbetter,E,2840.0,
Del Frisco’s Grille,(972) 807-6152,3232 McKinney Ave,75204,Steakhouses,,yelp_2_1139,Mckinney,,3232.0,
Stratos Greek Taverna,(214) 352-3321,2907 W Northwest Hwy,75220,Greek,,yelp_2_1140,Northwest,W,2907.0,
The Cheesecake Factory,(214) 373-4844,7700 W Northwest Hwy,75225,American (Traditional),,yelp_2_1142,Northwest,W,7700.0,
Thai Lotus Kitchen,(214) 520-9385,3851 Cedar Springs RdSte D,75219,Thai,,yelp_2_1143,Cedar,,3851.0,
Crisp Salad Company,(214) 821-2467,2020 Greenville Ave,75206,Salad,,yelp_2_1151,Greenville,,2020.0,
Yolk One Arts Plaza,(214) 855-9655,1722 Routh St,75201,Breakfast & Brunch,,yelp_2_1152,Routh,,1722.0,
Pho Crimson,(469) 547-5443,3000 Blackburn StSte 140C,75204,Vietnamese,,yelp_2_1153,Blackburn Stste 140C,,3000.0,
Pizza Lounge,(214) 887-6900,841 Exposition Ave,75226,Pizza,,yelp_2_1154,Exposition,,841.0,
MoMo Italian Kitchen,(972) 234-6800,8989 Forest LnSte 130,75243,Italian,,yelp_2_1155,Forest Lnste 130,,8989.0,
Peggy Sue BBQ,(214) 987-9188,6600 Snider Plz,75205,"Barbeque,American (Traditional),Italian",,yelp_2_1156,Snider,,6600.0,
Seafood Shack,(972) 406-0890,11625 Webbs Chapel Rd,75229,Seafood,,yelp_2_1157,Webbs Chapel,,11625.0,
Amberjax Fish Market Grille,(469) 513-9088,3011 Gulden LnSte 107,75212,Seafood,,yelp_2_1158,Gulden Lnste 107,,3011.0,
Parigi Restaurant,(214) 521-0295,3311 Oak Lawn AveSte 102,75219,Italian,,yelp_2_1160,Oak Lawn Aveste 102,,3311.0,
Suze,(214) 350-6135,4345 W Northwest Hwy,75220,"American (New),French Restaurants,Breakfast & Brunch",,yelp_2_1161,Northwest,W,4345.0,
IVY Kitchen,(214) 306-7444,5411 Beltline Rd,75254,American (New),,yelp_2_1162,Beltline,,5411.0,
State & Allen Kitchen+Bar,(214) 239-1990,2400 Allen St,75204,American (Traditional),,yelp_2_1163,Allen,,2400.0,
Urban Taco,(214) 823-4723,5331 E Mockingbird LnSte 125,75206,Mexican,,yelp_2_1165,Mockingbird Lnste 125,E,5331.0,
Lazaranda Modern Kitchen & Tequila,(972) 866-8900,5000 Beltline RdSte 850,75254,Mexican,,yelp_2_1167,Beltline Rdste 850,,5000.0,
Seafood Shack,(214) 351-2000,3701 W NW HwySte 195,75220,Seafood,,yelp_2_1168,Nw Hwyste 195,W,3701.0,
Pho Is For Lovers,(972) 708-1028,5521 Greenville AveSte 105,75206,Vietnamese,,yelp_2_1169,Greenville Aveste 105,,5521.0,
Kuai Dumplings & Soups,(214) 571-4544,Renaissance Tower1201 Elm St,75202,Asian Fusion,,yelp_2_1173,Renaissance Tower 1201 Elm,,-1.0,
Company Cafe,(214) 827-2233,2104 Greenville Ave,75206,Cafes,,yelp_2_1174,Greenville,,2104.0,
"Cindi’s N.Y. Delicatessen, Restaurant & Bakery",(214) 739-0918,11111 N Central ExpySte G,75243,Delis,,yelp_2_1178,Central Expyste G,N,11111.0,
Chicken Scratch,(214) 749-1112,2303 Pittman St,75208,Southern,,yelp_2_1179,Pittman,,2303.0,
Rise No 1,(214) 366-9900,5360 W Lovers LnSte 220,75209,French,,yelp_2_1181,Lovers Lnste 220,W,5360.0,
Tony’s Pizza & Pasta Restaurant,(214) 503-0388,10233 E NW HwySte 504,75238,Pizza,,yelp_2_1182,Nw Hwyste 504,E,10233.0,
Tortas La Hechizera,(214) 688-0236,5611 Maple Ave,75235,Mexican,,yelp_2_1186,Maple,,5611.0,
Grand Lux Cafe,(972) 385-3114,13420 N Dallas Pkwy,75240,Desserts,,yelp_2_1189,Dallas,N,13420.0,
Mangiamo Italian Restaurant,(214) 866-0044,12835 Preston RdSte 220,75230,Italian,,yelp_2_1190,Preston Rdste 220,,12835.0,
Stampede 66,(214) 550-6966,1717 Mckinney AveSte 100,75201,American (New),,yelp_2_1195,Mckinney Aveste 100,,1717.0,
Matt’s Rancho Martinez,(214) 823-5517,1904 Skillman St,75206,Mexican,,yelp_2_1197,Skillman,,1904.0,
JGs Old Fashioned Hamburgers,(972) 644-8628,12101 N Greenville Ave Ste 109Ste 109,75243,Burgers,,yelp_2_1198,Greenville,N,12101.0,
Torteria Insurgentes,(214) 750-5542,7019 Holly Hill Dr,75231,American (New),,yelp_2_1200,Holly,,7019.0,
Howard Wang’s Uptown,(214) 954-9558,3223 Lemmon AveSte 103,75204,Cantonese,,yelp_2_1201,Lemmon Aveste 103,,3223.0,
The Blue Fish,(214) 824-3474,3519 Greenville Ave,75206,Sushi Bars,,yelp_2_1202,Greenville,,3519.0,
Deep Sushi,(214) 651-1177,2624 Elm St,75226,Sushi Bars,,yelp_2_1205,Elm,,2624.0,
La Calle Doce,(214) 941-4304,415 W 12th St,75208,"Seafood,Mexican,Mexican",,yelp_2_1207,12Th,W,415.0,
Big Tony’s West Philly Cheesesteaks,(214) 812-9092,13378 Preston Rd,75240,Cheesesteaks,,yelp_2_1208,Preston,,13378.0,
Texadelphia,(214) 265-8044,5500 Greenville AveSte 600,75206,Sandwiches,,yelp_2_1211,Greenville Aveste 600,,5500.0,
El Ranchito,(214) 324-3303,1141 Peavy Rd,75218,Mexican,,yelp_2_1212,Peavy,,1141.0,
Sweet Tomatoes,(214) 369-2200,5500 Greenville AveUnit 1320,75206,Salad,,yelp_2_1213,Greenville Aveunit 1320,,5500.0,
Chip’s Old Fashioned Hamburgers,(214) 691-2447,4530 Lovers Ln,75225,Burgers,,yelp_2_1214,Lovers,,4530.0,
E Bar Tex Mex,(214) 824-3227,1901 N Haskell AveSte 120,75204,Mexican,,yelp_2_1215,Haskell Aveste 120,N,1901.0,
Pera Turkish Kitchen,(972) 267-4444,17479 Preston Rd,75252,Mediterranean,,yelp_2_1216,Preston,,17479.0,
The Social House,(972) 392-4300,5100 Belt Line RdSte 410,75254,American (New),,yelp_2_1217,Belt Line Rdste 410,,5100.0,
Shinsei,(214) 352-0005,7713 Inwood Rd,75209,Asian Fusion,,yelp_2_1219,Inwood,,7713.0,
Campisi’s,(214) 827-0355,5610 E Mockingbird Ln,75206,Italian,,yelp_2_1223,Mockingbird,E,5610.0,
Mac’s Barbecue,(214) 823-0731,3933 Main St,75226,Barbeque,,yelp_2_1224,Main,,3933.0,
Ba Le Restaurant,(972) 613-2960,11404 Shiloh RdSte 101,75228,Vietnamese,,yelp_2_1228,Shiloh Rdste 101,,11404.0,
El Ranchito,(214) 946-4238,610 W Jefferson Blvd,75208,Mexican,,yelp_2_1229,Jefferson,W,610.0,
Kaze,(214) 987-2333,7525 Greenville Ave,75231,Japanese,,yelp_2_1230,Greenville,,7525.0,
Tupinamba Cafe,(972) 991-8148,9665 N Central ExpwySte 142,75231,Tex-Mex,,yelp_2_1231,Central Expwyste 142,N,9665.0,
Manny’s Uptown Tex-Mex Restaurante,(214) 252-1616,3521 Oak Grove Rd,75204,Tex-Mex,,yelp_2_1232,Oak,,3521.0,
Green Papaya,(214) 521-4811,3211 Oak Lawn AveSte B,75219,Vietnamese,,yelp_2_1233,Oak Lawn Aveste B,,3211.0,
JJ’s Cafe,(214) 221-4659,10233 E NW HwySte 434,75238,American (Traditional),,yelp_2_1235,Nw Hwyste 434,E,10233.0,
Bánh Shop,(214) 890-9776,5629 SMU Blvd,75206,Vietnamese,,yelp_2_1237,Smu,,5629.0,
The Capital Grille,(214) 303-0500,500 Crescent Ct,75201,Steakhouses,,yelp_2_1238,Crescent,,500.0,
Gloria’s Restaurant,(972) 387-8442,5100 Belt Line RdSte 864,75254,Latin American,,yelp_2_1239,Belt Line Rdste 864,,5100.0,
Dante’s Italian Eatery,(214) 760-1988,208 N Market StSte 150,75202,Italian,,yelp_2_1240,Market Stste 150,N,208.0,
Chino Chinatown,(469) 513-7457,3011 Gulden LnSte 110,75212,Asian Fusion,,yelp_2_1243,Gulden Lnste 110,,3011.0,
Saint Ann,(214) 782-9807,2501 N Harwood St,75201,American (New),,yelp_2_1244,Harwood,N,2501.0,
Neighbors Casual Kitchen,(214) 349-2233,9661 Audelia RdSte 105,75238,American (New),,yelp_2_1245,Audelia Rdste 105,,9661.0,
The Grape Restaurant,(214) 828-1981,2808 Greenville Ave,75206,American (New),,yelp_2_1248,Greenville,,2808.0,
Press Box Grill,(214) 747-8226,1623 Main St,75201,Sports Bars,,yelp_2_1251,Main,,1623.0,
In-N-Out Burger,(800) 786-1000,7940 N Central Expy,75206,Burgers,,yelp_2_1253,Central,N,7940.0,
Rocking Crab,(972) 241-4406,11407 Emerald StSte 101,75229,Cajun/Creole,,yelp_2_1256,Emerald Stste 101,,11407.0,
Oh Sushi Roll & Teriyaki,(972) 869-9135,2053 W Northwest HwySte 90,75220,Sushi Bars,,yelp_2_1257,Northwest Hwyste 90,W,2053.0,
Jakes Uptown,(214) 754-8001,2702 McKinney AveSte 101,75204,Burgers,,yelp_2_1260,Mckinney Aveste 101,,2702.0,
Cedars Xpress,(214) 969-5701,1700 Pacific AveC -101,75201,Mediterranean,,yelp_2_1262,Pacific Avec - 101,,1700.0,
Bocce,(214) 943-1714,244 W Davis St,75208,Italian,,yelp_2_1263,Davis,W,244.0,
Tanoshii Ramen,(214) 651-6800,2724 Commerce St,75226,Ramen,,yelp_2_1264,Commerce,,2724.0,
Eden Restaurant and Pastries,(972) 267-3336,4416 W Lovers Ln,75209,American (Traditional),,yelp_2_1266,Lovers,W,4416.0,
Lovers Pizzeria & Pasta,(214) 321-2223,9440 Garland RdSte 162,75218,Italian,,yelp_2_1267,Garland Rdste 162,,9440.0,
Pollo Tropical,(972) 770-3540,5290 Beltline Rd,75254,Caribbean,,yelp_2_1268,Beltline,,5290.0,
Seoul Garden,(972) 484-6090,2502 Royal LnSte 103,75229,Korean,,yelp_2_1269,Royal Lnste 103,,2502.0,
The Slow Bone,(214) 377-7727,2234 Irving Blvd,75207,Barbeque,,yelp_2_1270,Irving,,2234.0,
Margarita’s Restaurant,(214) 821-9366,2414 N Fitzhugh Ave,75204,Mexican,,yelp_2_1272,Fitzhugh,N,2414.0,
Mexicali Restaurant,(214) 341-9405,11277 E NW HwySte 148,75238,Tex-Mex,,yelp_2_1273,Nw Hwyste 148,E,11277.0,
House of Blues,(214) 978-2583,2200 N Lamar St,75202,Music Venues,,yelp_2_1274,Lamar,N,2200.0,
Villa-O,(214) 780-1880,4514 Travis StSte 132,75205,Italian,,yelp_2_1276,Travis Stste 132,,4514.0,
Blue Mesa Grill,(214) 378-8686,7700 W NW Hwy,75225,Mexican,,yelp_2_1278,Nw,W,7700.0,
Saltgrass Steak House,(469) 330-0152,13561 N Central Expy,75243,Steakhouses,,yelp_2_1279,Central,N,13561.0,
Sahara Restaurant,(972) 788-1898,5441 Alpha RdSte 110,75240,Middle Eastern,,yelp_2_1282,Alpha Rdste 110,,5441.0,
Franki’s Pizza & Pasta,(469) 335-0345,11722 Marsh Ln,75229,Italian,,yelp_2_1284,Marsh,,11722.0,
Thai 2 Go,(214) 484-2161,2222 Medical District DrSte 205,75235,"Thai,Chinese,Coffee & Tea",,yelp_2_1285,Medical District Drste 205,,2222.0,
La Conga,(214) 377-9947,1820 W Mockingbird Ln,75235,Mexican,,yelp_2_1286,Mockingbird,W,1820.0,
Opening Bell Coffee,(214) 565-0383,1409 S Lamar StBasement Ste 012,75215,Coffee & Tea,,yelp_2_1288,Lamar Stbasement,S,1409.0,
Babb Bros BBQ,(214) 745-2224,330 Bedford St,75212,Barbeque,,yelp_2_1291,Bedford,,330.0,
Project Pie,(469) 547-1257,6030 Luther Ln,75225,Pizza,,yelp_2_1292,Luther,,6030.0,
Red Hot & Blue,(214) 368-7427,9810 N Central ExpySte 600,75231,Barbeque,,yelp_2_1293,Central Expyste 600,N,9810.0,
Pie Five Pizza Co.,(214) 526-7435,5927 Greenville Ave.,75206,Pizza,,yelp_2_1295,Greenville,,5927.0,
Taco Diner,(214) 521-3669,3699 McKinney Ave,75204,Mexican,,yelp_2_1297,Mckinney,,3699.0,
Sunrise Asian Cuisine,(214) 826-6300,5631 Alta Ave,75206,Asian Fusion,,yelp_2_1298,Alta,,5631.0,
Sangria Tapas Y Bar,(214) 520-4863,4524 Cole Ave,75205,Spanish,,yelp_2_1299,Cole,,4524.0,
DanSungSa,(469) 522-7399,11407 Emerald St,75229,"Bars,Bars",,yelp_2_1301,Emerald,,11407.0,
Nazca Kitchen,(214) 696-2922,8041 Walnut Hill LnSte 854,75231,"Latin American,Barbecue",,yelp_2_1304,Walnut,,8041.0,
Iron Cactus,(214) 749-4766,1520 Main St,75201,Mexican,,yelp_2_1305,Main,,1520.0,
Meerut Kabob House,(972) 243-5407,11276 Harry Hines Blvd,75229,Indian,,yelp_2_1306,Harry Hines,,11276.0,
Dixie House,(214) 826-2412,6400 Gaston Ave,75214,American (Traditional),,yelp_2_1307,Gaston,,6400.0,
Gino’s Cheese Steak,(972) 233-4466,5528 Alpha RdSte 105,75240,Cheesesteaks,,yelp_2_1308,Alpha Rdste 105,,5528.0,
Penne Pomodoro,(214) 373-9911,6815 Snider Plz,75205,Italian,,yelp_2_1309,Snider,,6815.0,
St Martin’s Wine Bistro,(214) 826-0940,3020 Greenville Ave,75206,French,,yelp_2_1313,Greenville,,3020.0,
Dickey’s Barbecue Pit,(214) 358-7277,"Love Field Airport8006 Cedar Springs, Space C-2190",75235,Barbeque,,yelp_2_1314,Love,,-1.0,space c- 2190
Firexbox,(214) 503-8888,9918 Plano Rd,75238,Japanese,,yelp_2_1315,Plano,,9918.0,
Snappy Salads,(214) 361-7627,5941 Greenville Ave,75206,Salad,,yelp_2_1316,Greenville,,5941.0,
Antoine’s Foods,(214) 528-5291,4234 Harry Hines Blvd,75219,Delis,,yelp_2_1317,Harry Hines,,4234.0,
Ravenna Urban Italian Restaurant,(214) 744-9333,1301 Main St,75202,Italian,,yelp_2_1318,Main,,1301.0,
Big Shucks,(214) 887-6353,6232 E Mockingbird Ln,75214,Seafood,,yelp_2_1321,Mockingbird,E,6232.0,
Ambala Grill,(972) 620-1727,11641 Harry Hines BlvdSte 201,75229,Indian,,yelp_2_1323,Harry Hines Blvdste 201,,11641.0,
Relish,(214) 306-5598,2000 Woodall Rodgers Hwy,75201,Food Stands,,yelp_2_1327,Woodall Rodgers,,2000.0,
La Comida,(972) 770-0968,5100 Belt Line RdSte 796,75254,Mexican,,yelp_2_1329,Belt Line Rdste 796,,5100.0,
Gui Korean Japanese Bistro & Bar,(214) 720-9229,2719 McKinney Ave,75204,Japanese,,yelp_2_1330,Mckinney,,2719.0,
i Fratelli Pizza,(214) 720-0070,2815 Allen StSte 124,75204,Italian,,yelp_2_1333,Allen Stste 124,,2815.0,
Fish City Grill,(214) 891-9979,10720 Preston Rd,75230,Seafood,,yelp_2_1334,Preston,,10720.0,
Dallas Chop House,(214) 736-7300,1717 Main St,75201,Steakhouses,,yelp_2_1335,Main,,1717.0,
Tacolicious,(214) 496-0699,1894 Royal LnSte 102,75229,Mexican,,yelp_2_1337,Royal Lnste 102,,1894.0,
Dallas Grilled Cheese Co,(214) 944-5515,310 W 7th St,75208,American (New),,yelp_2_1340,7Th,W,310.0,
Tacos Y Mas,(972) 807-2466,2820 Greenville Ave,75206,Mexican,,yelp_2_1341,Greenville,,2820.0,
Mama’s Daughter’s Diner,(972) 241-8646,2610 Royal Ln,75229,Soul Food,,yelp_2_1342,Royal,,2610.0,
City Cafe,(214) 351-2233,5757 W Lovers Ln,75209,American (New),,yelp_2_1343,Lovers,W,5757.0,
El Fenix Mexican Restaurants,(214) 747-1121,1601 McKinney Ave,75202,Mexican,,yelp_2_1346,Mckinney,,1601.0,
Taqueria Cholula,(214) 265-0311,6886 Shady Brook Ln,75231,Mexican,,yelp_2_1347,Shady,,6886.0,
Firecrust Neapolitan Pizzeria,(469) 607-5931,4447 N Central ExpySte 100,75205,Pizza,,yelp_2_1348,Central Expyste 100,N,4447.0,
Sushi Kyoto,(214) 520-9991,6429 Hillcrest Ave,75205,Sushi Bars,,yelp_2_1349,Hillcrest,,6429.0,
No.1 Plus Chicken,(972) 488-9100,2240 Royal LnSte 103,75229,"Korean,Korea",,yelp_2_1351,Royal Lnste 103,,2240.0,
Zoli’s,(214) 942-9654,202 W Davis St,75208,Pizza,,yelp_2_1352,Davis,W,202.0,
Uncle Julio’s Fine Mexican Food,(214) 520-6620,4125 Lemmon Ave,75219,Mexican,,yelp_2_1357,Lemmon,,4125.0,
Bistro B,(214) 575-9885,9780 Walnut StSte 340,75243,Vietnamese,,yelp_2_1363,Walnut Stste 340,,9780.0,
Phò Envy,(214) 987-1468,8611 Hillcrest RdSte 190,75225,Vietnamese,,yelp_2_1364,Hillcrest Rdste 190,,8611.0,
Oasis Restaurant,(214) 361-8120,5945 Greenville Ave,75206,Breakfast & Brunch,,yelp_2_1365,Greenville,,5945.0,
Becks Prime,(972) 661-8681,5931 Forest Ln,75230,American (Traditional),,yelp_2_1369,Forest,,5931.0,
Tropical Smoothie Cafe,(214) 351-7037,4560 W Mockingbird Ln,75209,Juice Bars & Smoothies,,yelp_2_1372,Mockingbird,W,4560.0,
Picasso’s,(214) 553-8100,7215 Skillman StSte 300,75231,Pizza,,yelp_2_1373,Skillman Stste 300,,7215.0,
Cosmo’s Bar & Lounge,(214) 826-4200,1212 Skillman St,75206,Pizza,,yelp_2_1375,Skillman,,1212.0,
Snuffer’s Restaurant & Bar,(214) 826-6850,3526 Greenville Ave,75206,Burgers,,yelp_2_1377,Greenville,,3526.0,
Enchilada’s,(214) 363-8969,7050 Greenville Ave,75231,Tex-Mex,,yelp_2_1384,Greenville,,7050.0,
Sonny Bryan’s Smokehouse,(214) 357-7120,2202 Inwood Rd,75235,Barbeque,,yelp_2_1385,Inwood,,2202.0,
Mi Cocina,(972) 239-6426,13350 Dallas PkwySte 100,75240,Tex-Mex,,yelp_2_1387,Dallas Pkwyste 100,,13350.0,
Taqueria Pinocho,(214) 823-4272,118 S Carroll Ave,75226,Mexican,,yelp_2_1388,Carroll,S,118.0,
The Oceanaire Seafood Room,(972) 759-2277,13340 Dallas Pkwy,75295,Seafood,,yelp_2_1389,Dallas,,13340.0,
Snuffer’s Restaurant & Bar,(214) 265-9911,8411 Preston RdSte 112,75225,Burgers,,yelp_2_1395,Preston Rdste 112,,8411.0,
Black Eyed Pea,(214) 521-4580,3857 Cedar Springs Rd,75219,American (Traditional),,yelp_2_1397,Cedar,,3857.0,
Tei-An,(214) 220-2828,"One Arts Plz1722 Routh St, Ste 110",75201,Japanese,,yelp_2_1400,One Arts,,-1.0,ste 110
Fernando’s Mexican Cuisine,(214) 351-9010,4347 W NW HwySte 100,75220,Tex-Mex,,yelp_2_1401,Nw Hwyste 100,W,4347.0,
Front Room Tavern,(214) 219-8282,6101 Hillcrest Ave,75205,American (New),,yelp_2_1405,Hillcrest,,6101.0,
Tacoqueta,(214) 943-9991,2324 W ClarendonSte 100,75208,Diners,,yelp_2_1406,Clarendonste 100,W,2324.0,
Hoffbrau Steaks,(214) 742-4663,311 N Market St,75202,"Steakhouses,Fashion",,yelp_2_1407,Market,N,311.0,
Betty’s Best Around,(214) 826-2266,3607A Greenville Ave,75206,Chinese,,yelp_2_1409,Greenville,,3607.0,
Graze Restaurant,(214) 871-7111,"Le Méridien Dallas, The Stoneleigh2927 Maple Ave",75201,American (New),,yelp_2_1410,"Le M Éridien Dallas, The Stoneleigh2927 Maple Ave",,-1.0,
Kuai Dumplings & Soups,(972) 789-1199,325 N St. Paul St,75201,"Asian Fusion,Asian Fusion",,yelp_2_1412,St Paul,N,325.0,
The Metropolitan Cafe,(214) 741-2233,2030 Main St,75201,Sandwiches,,yelp_2_1414,Main,,2030.0,
The Porch,(214) 828-2916,2912 N Henderson Ave,75206,Southern,,yelp_2_1415,Henderson,N,2912.0,
Cremona Bistro Kitchen,(214) 871-1115,2704 Worthington St,75204,Italian,,yelp_2_1416,Worthington,,2704.0,
El Paisa Cocina Mexicana,(214) 366-9789,10840 Harry Hines Blvd,75220,Mexican,,yelp_2_1420,Harry Hines,,10840.0,
Cafe Gecko,(972) 458-9884,5290 Belt Line RdSte 118,75254,Bars,,yelp_2_1422,Belt Line Rdste 118,,5290.0,
Taco Diner,(214) 696-4944,4011 Villanova St,75225,Mexican,,yelp_2_1423,Villanova,,4011.0,
45 Mint Vietnamese Bistro,(972) 387-4545,14902 Preston RdSte 512B,75254,Vietnamese,,yelp_2_1424,Preston Rdste 512B,,14902.0,
Noodle Nexus,(214) 871-7222,325 N St. Paul St,75201,Thai,,yelp_2_1425,St Paul,N,325.0,
In The Sack,(214) 646-3117,1700 Cedar Springs RdSte 120,75202,Sandwiches,,yelp_2_1429,Cedar,,1700.0,
Cigarz Bona Pizza,(214) 319-0055,7238 Gaston Ave,75214,Pizza,,yelp_2_1430,Gaston,,7238.0,
Resto Gastro Bistro,(214) 584-6747,"Trinity Groves3011 Gulden Ln, Ste 104",75212,American (New),,yelp_2_1431,Trinity,,-1.0,ste 104
Smashburger,(469) 341-3394,2222 McKinney Ave,75201,Burgers,,yelp_2_1432,Mckinney,,2222.0,
Original Italian Cafe,(214) 651-7000,115 S Field St,75202,Pizza,,yelp_2_1435,Field,S,115.0,
El Come Taco,(214) 821-3738,2513 N Fitzhugh Ave,75204,Mexican,,yelp_2_1437,Fitzhugh,N,2513.0,
Amore Italian Restaurant,(214) 739-0502,6931 Snider Plz,75205,"Italian,American (Traditional),Barbeque",,yelp_2_1438,Snider,,6931.0,
Mattito’s Tex-Mex,(214) 526-8181,3102 Oaklawn,75219,Tex-Mex,,yelp_2_1439,Oaklawn,,3102.0,
Royal Wok Chinese Restaurant,(972) 488-8282,2560 Royal LnSte 100,75229,Chinese,,yelp_2_1440,Royal Lnste 100,,2560.0,
Mai’s Vietnamese Restaurant,(214) 826-9887,4812 Bryan StSte 100,75204,Vietnamese,,yelp_2_1441,Bryan Stste 100,,4812.0,
Samson’s Gourmet Hot Dogs,(214) 468-4560,2615 Oak Lawn AveSte 104,75219,Hot Dogs,,yelp_2_1442,Oak Lawn Aveste 104,,2615.0,
Kenichi,(214) 871-8883,2400 Victory Park Ln,75219,Sushi Bars,,yelp_2_1444,Victory,,2400.0,
Big Al’s Smokehouse BBQ,(214) 350-2649,3317 Inwood Rd,75235,Barbeque,,yelp_2_1446,Inwood,,3317.0,
Gangnam Galbi,(972) 243-1818,2254 Royal LnSte 100,75229,Korean,,yelp_2_1449,Royal Lnste 100,,2254.0,
Fujiyama Sushi & Yakitori Bar,(972) 662-2885,18217 Midway RdSte 108,75287,Sushi Bars,,yelp_2_1452,Midway Rdste 108,,18217.0,
Qariah Lebanese Restaurant & Lounge,(214) 826-4444,1811 Greenville AveSte 145,75206,Middle Eastern,,yelp_2_1455,Greenville Aveste 145,,1811.0,
La Salsa Verde Taqueria,(214) 366-0999,2728 Community Dr,75220,Mexican,,yelp_2_1457,Community,,2728.0,
Crushcraft Thai Street Eats,(972) 677-7038,2800 Routh StSte 150,75201,Thai,,yelp_2_1459,Routh Stste 150,,2800.0,
Bob’s Steak & Chop House,(214) 528-9446,4300 Lemmon Ave,75219,Steakhouses,,yelp_2_1461,Lemmon,,4300.0,
Highland Park Cafeteria,(214) 324-5000,1200 N Buckner Blvd,75218,Southern,,yelp_2_1462,Buckner,N,1200.0,
Cafe Express,(214) 352-2211,5600 W Lovers LnSte 109,75209,American (Traditional),,yelp_2_1463,Lovers Lnste 109,W,5600.0,
Salata,(214) 599-8507,3000 Blackburn St,75204,Salad,,yelp_2_1464,Blackburn,,3000.0,
Masala Wok,(469) 232-9390,6106 Luther Ln,75222,Indian,,yelp_2_1465,Luther,,6106.0,
Mi Cocina,(469) 533-5663,3699 McKinney Ave,75204,Mexican,,yelp_2_1467,Mckinney,,3699.0,
Howard Wang’s China Grill,(214) 366-1606,4343 W Northwest HwySuite 345,75220,Chinese,,yelp_2_1468,Northwest Hwysuite 345,W,4343.0,
In-N-Out Burger,(800) 786-1000,12909 Midway Rd,75244,Burgers,,yelp_2_1469,Midway,,12909.0,
Café Momentum,(214) 303-1234,1510 Pacific Ave,75201,American (New),,yelp_2_1470,Pacific,,1510.0,
The Original Pancake House,(214) 528-7215,2900 Lemmon AveSte 200,75204,Breakfast & Brunch,,yelp_2_1471,Lemmon Aveste 200,,2900.0,
Cafe Express,(214) 999-9444,3230 McKinney Ave,75204,American (New),,yelp_2_1473,Mckinney,,3230.0,
Campisis,(214) 350-2595,5405 W Lovers Ln,75209,Italian,,yelp_2_1474,Lovers,W,5405.0,
Buzzbrews Kitchen,(214) 370-5815,5815 Live Oak StSte 102,75214,Breakfast & Brunch,,yelp_2_1476,Live Oak Stste 102,,5815.0,
Reikyu Sushi & Bar,(214) 823-3772,5321 E Mockingbird LnSte 200,75206,Sushi Bars,,yelp_2_1477,Mockingbird Lnste 200,E,5321.0,
Naga Thai Kitchen & Bar,(214) 953-0023,665 High Market St,75219,Thai,,yelp_2_1483,High Market,,665.0,
Dough Bro’s Italian Kitchen,(469) 248-0058,5181 Keller Springs RdSte 101,75248,Pizza,,yelp_2_1485,Keller,,5181.0,
Mr Sushi Japanese Restaurant,(972) 385-0168,4860 Belt Line Rd,75254,Japanese,,yelp_2_1487,Belt Line,,4860.0,
Natalie’s Restaurant,(214) 739-0362,5940 Royal Ln,75230,American (New),,yelp_2_1488,Royal,,5940.0,
Kalachandji’s,(214) 821-1048,5430 Gurley Ave,75223,Vegetarian,,yelp_2_1490,Gurley,,5430.0,
Italia Express,(214) 521-3300,4000 Cedar Springs Rd,75219,Italian,,yelp_2_1491,Cedar,,4000.0,
Thai Opal,(214) 553-5956,6300 Skillman StSte 156,75231,Thai,,yelp_2_1492,Skillman Stste 156,,6300.0,
Bubba’s Cooks Country,(214) 373-6527,6617 Hillcrest Ave,75205,American (Traditional),,yelp_2_1493,Hillcrest,,6617.0,
ONE90 Smoked Meats,(214) 346-3287,10240 East Northwest Hwy,75238,Butcher,,yelp_2_1494,Northwest,E,10240.0,
Lark On the Park,(214) 855-5275,2015 Woodall Rodgers Fwy,75201,Diners,,yelp_2_1495,Woodall Rodgers,,2015.0,
Mad Hatter Cafe,(214) 954-9900,400 N St. Paul StSte 120,75201,Cafes,,yelp_2_1496,St Paul Stste 120,N,400.0,
Aloha Hawaiian Barbecue,(214) 521-8868,5610 Lemmon AveSte A1,75209,Barbeque,,yelp_2_1498,Lemmon Aveste A 1,,5610.0,
Off the Bone Barbeque,(214) 565-9551,1734 S Lamar St,75215,Barbeque,,yelp_2_1500,Lamar,S,1734.0,
Wabi House,(469) 779-6474,1802 Greenville AveSte 100,75206,Ramen,,yelp_2_1501,Greenville Aveste 100,,1802.0,
Hattie’s Restaurant,(214) 942-7400,418 N Bishop Ave,75208,Southern,,yelp_2_1502,Bishop,N,418.0,
Si Lom,(214) 780-0983,3300 Oak Lawn AveSte 110,75219,Thai,,yelp_2_1504,Oak Lawn Aveste 110,,3300.0,
Neighborhood Services,(972) 789-9639,5100 Beltline RdSte 795,75254,American (New),,yelp_2_1506,Beltline Rdste 795,,5100.0,
Green House Market,(214) 809-5977,8687 N Central Expy,75225,American (New),,yelp_2_1508,Central,N,8687.0,
Hillstone Restaurant,(214) 691-8991,8300 A Preston Rd,75225,American (New),,yelp_2_1512,A Preston,,8300.0,
Cane Rosso,(214) 741-1188,2612 Commerce St,75226,Pizza,,yelp_2_1514,Commerce,,2612.0,
Monkey King Noodle Co.,(469) 206-3658,3014 Main St,75226,Chinese,,yelp_2_1515,Main,,3014.0,
Meddlesome Moth,(214) 628-7900,1621 Oak Lawn Ave,75207,Bars,,yelp_2_1516,Oak Lawn,,1621.0,
Khao Soi By Inthanon Thai,(323) 464-1790,5907 Hollywood Blvd,90028,Thai,,yelp_2_1519,Hollywood,,5907.0,
Open Sesame,(323) 525-1698,7458 Beverly Blvd,90036,Mediterranean,,yelp_2_1520,Beverly,,7458.0,
The Hart & The Hunter,(323) 424-3055,7950 Melrose Ave,90048,American (New),,yelp_2_1521,Melrose,,7950.0,
Birch,(323) 960-3369,1634 N Cahuenga Blvd,90028,American (New),,yelp_2_1525,Cahuenga,N,1634.0,
Food Fair by Diego,(323) 933-9314,7825 Beverly Blvd,90036,American (New),,yelp_2_1526,Beverly,,7825.0,
Smoke’s Poutinerie,(323) 745-0267,1552 N Cahuenga Blvd,90028,Poutineries,,yelp_2_1531,Cahuenga,N,1552.0,
Osteria La Buca,(323) 462-1900,5210 Melrose Ave,90038,Italian,,yelp_2_1533,Melrose,,5210.0,
Daikokuya,(213) 626-1680,327 E 1st St,90012,"Ramen,Japanese,Japanese,Japanese,Japanese,Japanese",,yelp_2_1536,1St,E,327.0,
Guelaguetza Restaurante,(213) 427-0608,3014 W Olympic Blvd,90006,Mexican,,yelp_2_1539,Olympic,W,3014.0,
Summer Buffalo,(323) 938-8808,7275 Melrose Ave,90046,Thai,,yelp_2_1541,Melrose,,7275.0,
Marugame Monzo,(213) 346-9762,329 E 1st St,90012,Japanese,,yelp_2_1543,1St,E,329.0,
Myung Dong Kyoja,(213) 385-7789,3630 Wilshire Blvd,90010,Korean,,yelp_2_1544,Wilshire,,3630.0,
La Cevicheria,(323) 732-1253,3809 W Pico Blvd,90019,Seafood,,yelp_2_1546,Pico,W,3809.0,
Silverlake Ramen,(323) 660-8100,2927 W Sunset Blvd,90026,Ramen,,yelp_2_1548,Sunset,W,2927.0,
The Black Sheep,(213) 689-5022,126 E 6th St,90013,Asian Fusion,,yelp_2_1549,6Th,E,126.0,
Blue Cow Kitchen,(213) 621-2249,350 S Grand Ave,90071,American (New),,yelp_2_1550,Grand,S,350.0,
The Boiling Crab,(213) 389-2722,3377 Wilshire BlvdSte 115,90010,Seafood,,yelp_2_1552,Wilshire Blvdste 115,,3377.0,
Blu Jam Café,(323) 951-9191,7371 Melrose Ave,90046,"Breakfast & Brunch,Italian Restaurants,Korean Restaurants,Spanish Restaurants",,yelp_2_1553,Melrose,,7371.0,
Jun Won Restaurant,(213) 383-8855,3100 W 8th StSte 101,90005,Korean,,yelp_2_1554,8Th,W,3100.0,
Little Beast Restaurant,(323) 341-5899,1496 Colorado Blvd,90041,American (New),,yelp_2_1556,Colorado,,1496.0,
Deli-In,(213) 388-3451,3456 1/2 Wilshire Blvd,90010,Delis,,yelp_2_1557,1/2 Wilshire,,3456.0,
Tatsu Ramen,(323) 747-1388,7111 Melrose Ave,90046,"Ramen,Ramen",,yelp_2_1558,Melrose,,7111.0,
The Kitchen,(323) 664-3663,4348 Fountain Ave,90029,American (New),,yelp_2_1560,Fountain,,4348.0,
Franco On Melrose,(323) 934-3390,6919 Melrose Ave,90038,Italian,,yelp_2_1561,Melrose,,6919.0,
Bento Man,(323) 733-5316,1500 S Western Ave,90006,Japanese,,yelp_2_1562,Western,S,1500.0,
Honey Bee’s House of Breakfast,(323) 731-7203,4715 W Adams Blvd,90016,Breakfast & Brunch,,yelp_2_1563,Adams,W,4715.0,
Kobawoo House,(213) 389-7300,698 S Vermont AveSte 109,90005,Korean,,yelp_2_1566,Vermont Aveste 109,S,698.0,
Yu Chun Chic Naeng Myun,(213) 382-3815,3185 W Olympic Blvd,90006,Korean,,yelp_2_1567,Olympic,W,3185.0,
Maré,(323) 592-3226,7465 Melrose Ave,90046,Seafood,,yelp_2_1569,Melrose,,7465.0,
Hiatus Urban Barbeque,(323) 879-9700,1292 S La Brea Ave,90019,Barbeque,,yelp_2_1571,La Brea,S,1292.0,
La Noche Buena Restaurant,(213) 628-2078,12 Olvera St,90012,Mexican,,yelp_2_1572,Olvera,,12.0,
Jacks N Joe,(213) 748-4565,2498 S Figueroa St,90007,Breakfast & Brunch,,yelp_2_1573,Figueroa,S,2498.0,
Forage,(323) 663-6885,3823 W Sunset Blvd,90026,American (New),,yelp_2_1576,Sunset,W,3823.0,
Pita Bar & Grill,(323) 653-9024,519 N Fairfax Ave,90036,Food,,yelp_2_1581,Fairfax,N,519.0,
The Hungry Pig,(213) 387-7787,2920 W Temple St,90026,Barbeque,,yelp_2_1582,Temple,W,2920.0,
Son of a Gun,(323) 782-9033,8370 W 3rd St,90048,Seafood,,yelp_2_1583,3Rd,W,8370.0,
Mendocino Farms,(323) 934-4261,175 S Fairfax AveSte B,90036,Sandwiches,,yelp_2_1584,Fairfax Aveste B,S,175.0,
I Panini Di Ambra,(323) 463-1200,5633 Hollywood Blvd,90028,Bakeries,,yelp_2_1589,Hollywood,,5633.0,
Trattoria Bella Roma,(310) 277-7662,1509 S Robertson Blvd,90035,Italian,,yelp_2_1591,Robertson,S,1509.0,
Kang Ho Dong Baekjeong,(213) 384-9678,3465 W 6th StSte 20,90020,"Korean,Korean",,yelp_2_1593,6Th,W,3465.0,
Masa of Echo Park,(213) 989-1558,1800 W Sunset Blvd,90026,American (New),,yelp_2_1595,Sunset,W,1800.0,
Myung In Dumplings,(213) 381-3568,3109 W Olympic BlvdSte B,90006,Korean,,yelp_2_1598,Olympic Blvdste B,W,3109.0,
The Golden State,(323) 782-8331,426 N Fairfax Ave,90036,Burgers,,yelp_2_1601,Fairfax,N,426.0,
Public School 213,(213) 622-4500,612 Flower St,90017,Bars,,yelp_2_1603,Flower,,612.0,
Taqueria Los Anaya,(323) 731-4070,4651 W Adams Blvd,90016,Mexican,,yelp_2_1604,Adams,W,4651.0,
Bao Dim Sum House,(323) 655-6556,8256 Beverly Blvd,90048,Dim Sum,,yelp_2_1605,Beverly,,8256.0,
Sopita,(323) 356-9224,3087 W Pico BlvdSte 9,90006,Korean,,yelp_2_1609,Pico Blvdste 9,W,3087.0,
Carousel Restaurant,(323) 660-8060,5112 Hollywood BlvdSte 107,90027,Armenian,,yelp_2_1611,Hollywood Blvdste 107,,5112.0,
Chunju Han-il Kwan,(213) 480-1799,3450 W 6th StSte 106,90020,Korean,,yelp_2_1614,6Th,W,3450.0,
Wurstküche,(213) 687-4444,800 E 3rd St,90013,Hot Dogs,,yelp_2_1617,3Rd,E,800.0,
Sushi by H,(323) 782-0547,480 S San Vicente Blvd,90048,Japanese,,yelp_2_1619,San Vicente,S,480.0,
Yang Chow,(213) 625-0811,819 N Broadway,90012,Chinese,,yelp_2_1620,Broadway,N,819.0,
Blue Window,(323) 203-0500,742-B N Highland Ave,90038,Korean,,yelp_2_1621,-B N Highland,,742.0,
Local Table,(213) 488-2654,800 S Figueroa StSte 103,90017,American (New),,yelp_2_1623,Figueroa Stste 103,S,800.0,
Cha Cha Cha,(323) 664-7723,656 N Virgil Ave,90004,Caribbean,,yelp_2_1625,Virgil,N,656.0,
Pine & Crane,(323) 668-1128,1521 Griffith Park Blvd,90026,Taiwanese,,yelp_2_1626,Griffith,,1521.0,
Spicy BBQ Restaurant,(323) 663-4211,5101 Santa Monica Blvd,90029,Barbeque,,yelp_2_1629,Santa Monica,,5101.0,
Badmaash,(213) 221-7466,108 W 2nd StSte 104,90012,Indian,,yelp_2_1630,2Nd,W,108.0,
The Pikey,(323) 850-5400,7617 W Sunset Blvd,90046,British,,yelp_2_1631,Sunset,W,7617.0,
California Chicken Cafe,(323) 935-5877,6805 Melrose Ave,90038,American (New),,yelp_2_1633,Melrose,,6805.0,
Hae Ha Heng Thai Bistro,(213) 388-2407,301 S Western AveSte 209,90020,Thai,,yelp_2_1634,Western Aveste 209,S,301.0,
Totoraku,(310) 838-9881,10610 W Pico Blvd,90064,Japanese,,yelp_2_1635,Pico,W,10610.0,
DeSano Pizza Bakery,(323) 913-7000,4959 Santa Monica Blvd,90029,Pizza,,yelp_2_1636,Santa Monica,,4959.0,
Pa Ord Noodle,(323) 461-3945,5301 Sunset BlvdSte 8-9,90027,Thai,,yelp_2_1639,Sunset Blvdste 8-9,,5301.0,
Mario’s Peruvian & Seafood,(323) 466-4181,5786 Melrose Ave,90038,Seafood,,yelp_2_1643,Melrose,,5786.0,
The Cup,(213) 744-1233,3782 S Figueroa St,90007,Italian,,yelp_2_1644,Figueroa,S,3782.0,
Angelini Osteria,(323) 297-0070,7313 Beverly Blvd,90036,Italian,,yelp_2_1645,Beverly,,7313.0,
Seafood Express,(213) 483-2122,2122 Beverly Blvd,90057,Seafood,,yelp_2_1648,Beverly,,2122.0,
Roscoe’s House of Chicken & Waffles,(323) 466-7453,1514 N Gower St,90028,Southern,,yelp_2_1651,Gower,N,1514.0,
Prado Restaurant,(323) 467-3871,244 N Larchmont Blvd,90004,Caribbean,,yelp_2_1656,Larchmont,N,244.0,
Faith & Flower,(213) 239-0642,705 W 9th St,90015,American (New),,yelp_2_1658,9Th,W,705.0,
Community Los Feliz,(323) 913-0478,2044 Hillhurst Ave,90027,Sandwiches,,yelp_2_1660,Hillhurst,,2044.0,
Cooks County,(323) 653-8009,8009 Beverly Blvd,90048,American (New),,yelp_2_1661,Beverly,,8009.0,
The Little Door,(323) 951-1210,8164 W 3rd St,90048,French,,yelp_2_1662,3Rd,W,8164.0,
Picca,(310) 277-0133,9575 W Pico Blvd,90035,Peruvian,,yelp_2_1665,Pico,W,9575.0,
Mendocino Farms,(213) 627-3262,444 S Flower St,90071,Sandwiches,,yelp_2_1667,Flower,S,444.0,
Local,(323) 662-4740,2943 W Sunset Blvd,90026,Salad,,yelp_2_1668,Sunset,W,2943.0,
Osteria Mamma,(323) 284-7060,5732 Melrose Ave,90038,Italian,,yelp_2_1670,Melrose,,5732.0,
Boo’s Philly Cheesesteaks & Hoagies,(323) 661-1955,4501 Fountain Ave,90029,Cheesesteaks,,yelp_2_1674,Fountain,,4501.0,
Pollo A La Brasa Western,(213) 387-1531,764 S Western Ave,90005,Latin American,,yelp_2_1675,Western,S,764.0,
Gam Ja Gol,(213) 381-6446,3003 W Olympic BlvdSte 107,90006,Korean,,yelp_2_1677,Olympic Blvdste 107,W,3003.0,
Papa Cristo’s,(323) 737-2970,2771 W Pico Blvd,90006,"Greek,Caterers",,yelp_2_1682,Pico,W,2771.0,
Post & Beam,(323) 299-5599,3767 Santa Rosalia Dr,90008,Pizza,,yelp_2_1683,Santa Rosalia,,3767.0,
Craft,(310) 279-4180,10100 Constellation Blvd,90067,American (New),,yelp_2_1684,Constellation,,10100.0,
EVO Kitchen,(323) 375-3390,7950 Sunset BlvdSte 104,90046,American (New),,yelp_2_1687,Sunset Blvdste 104,,7950.0,
Isaan Station Thai Street Food,(323) 380-5126,125 N Western Ave,90004,Thai,,yelp_2_1688,Western,N,125.0,
Wirtshaus,(323) 931-9291,345 N La Brea Ave,90036,German,,yelp_2_1692,La Brea,N,345.0,
Hangari Bajirak Kalgooksoo,(213) 388-2326,3470 W 6th StSte 9,90020,Korean,,yelp_2_1693,6Th,W,3470.0,
Hae Jang Chon Korean BBQ Restaurant,(213) 389-8777,3821 W 6th St,90020,Korean,,yelp_2_1695,6Th,W,3821.0,
Ssam Korean BBQ,(323) 737-9292,1040 S Western Ave,90006,Barbeque,,yelp_2_1702,Western,S,1040.0,
Bludso’s Bar & Que,(323) 931-2583,609 N La Brea Ave,90036,Barbeque,,yelp_2_1703,La Brea,N,609.0,
Ttu Rak,(323) 960-0037,125 N Western Ave,90004,Korean,,yelp_2_1705,Western,N,125.0,
Andre’s Italian Restaurant,(323) 935-1246,6332 W 3rd St,90036,Italian,,yelp_2_1708,3Rd,W,6332.0,
Pizzeria Mozza,(323) 297-0101,641 N Highland Ave,90036,Pizza,,yelp_2_1710,Highland,N,641.0,
Seasalt Fish Grill,(213) 243-5700,812 W 7th St,90017,Seafood,,yelp_2_1711,7Th,W,812.0,
Square One Dining,(323) 661-1109,4854 Fountain Ave,90029,American (New),,yelp_2_1714,Fountain,,4854.0,
All’Acqua,(323) 663-3280,3280 Glendale Blvd,90039,Italian,,yelp_2_1718,Glendale,,3280.0,
Chi Spacca,(323) 297-1133,6610 Melrose Ave,90038,Italian,,yelp_2_1720,Melrose,,6610.0,
The Factory Kitchen,(213) 996-6000,1300 Factory PlSte 101,90013,Italian,,yelp_2_1730,Factory Plste 101,,1300.0,
Pace,(323) 654-8583,2100 Laurel Canyon Blvd,90046,"Italian,Farmers Market,Farmers Market",,yelp_2_1731,Laurel,,2100.0,
Hyperion Public,(323) 761-6440,2538 Hyperion Ave,90027,Gastropubs,,yelp_2_1732,Hyperion,,2538.0,
Elf Café,(213) 484-6829,2135 W Sunset Blvd,90026,Vegetarian,,yelp_2_1733,Sunset,W,2135.0,
PokiNometry,(323) 645-7730,6801 Hollywood BlvdSte 316,90028,Japanese,,yelp_2_1738,Hollywood Blvdste 316,,6801.0,
Jon & Vinny’s,(323) 334-3369,412 N Fairfax AveApt 12,90036,Italian,,yelp_2_1739,Fairfax Aveapt 12,N,412.0,
Versailles Restaurant,(310) 289-0392,1415 S La Cienega Blvd,90035,Cuban,,yelp_2_1740,La Cienega,S,1415.0,
Home Restaurant - Los Feliz,(323) 669-0211,1760 Hillhurst Ave,90027,Breakfast & Brunch,,yelp_2_1742,Hillhurst,,1760.0,
All’ Angolo Pizza & Pasta,(213) 368-7888,4050 W 3rd St,90020,Pizza,,yelp_2_1747,3Rd,W,4050.0,
Asian Fusion,(424) 298-8247,1710 S Robertson Blvd,90035,Asian Fusion,,yelp_2_1751,Robertson,S,1710.0,
Sushi Enya,(213) 626-3692,343 E 1st St,90012,Japanese,,yelp_2_1752,1St,E,343.0,
Eighth Street Soondae,(213) 487-0038,2703 W 8th St,90005,Korean,,yelp_2_1753,8Th,W,2703.0,
Ebaes,(213) 747-6888,2314 S Union Ave,90007,Tapas/Small Plates,,yelp_2_1755,Union,S,2314.0,
Wah’s Golden Hen,(323) 661-0093,709 N Virgil Ave,90029,Chinese,,yelp_2_1765,Virgil,N,709.0,
Mud Hen Tavern,(323) 203-0500,742 N Highland Ave,90028,Bars,,yelp_2_1766,Highland,N,742.0,
The Park’s Finest,(213) 481-2800,1267 W Temple St,90026,"Barbeque,Burgers,Gastropubs,Italian",,yelp_2_1767,Temple,W,1267.0,
Seoul Garden Restaurant,(213) 386-8477,1833 W Olympic Blvd,90006,Korean,,yelp_2_1768,Olympic,W,1833.0,
Del Rey Kitchen,(310) 822-7788,12740 Culver BlvdSte B,90066,Japanese,,yelp_2_1770,Culver Blvdste B,,12740.0,
Monarca Pasta & Grill,(323) 731-8149,2703 S Vermont Ave,90007,Italian,,yelp_2_1772,Vermont,S,2703.0,
Noshi Sushi,(323) 469-3458,4430 Beverly Blvd,90004,Sushi Bars,,yelp_2_1773,Beverly,,4430.0,
Western Doma Noodles,(323) 871-1955,429 N Western AveSte 10,90004,Korean,,yelp_2_1775,Western Aveste 10,N,429.0,
Nature’s Brew,(213) 741-9393,2316 S Union Ave,90007,Coffee & Tea,,yelp_2_1776,Union,S,2316.0,
Antequera De Oaxaca,(323) 466-1101,5200 Melrose Ave,90038,Mexican,,yelp_2_1780,Melrose,,5200.0,
Ruen Pair,(323) 466-0153,5257 Hollywood Blvd,90027,Thai,,yelp_2_1781,Hollywood,,5257.0,
Carlitos Gardel,(323) 655-0891,7963 Melrose Ave,90046,Argentine,,yelp_2_1784,Melrose,,7963.0,
fundamental LA,(310) 444-7581,1303 Westwood Blvd,90024,American (New),,yelp_2_1794,Westwood,,1303.0,
Santouka Ramen,(310) 391-1101,3760 S Centinela Ave,90066,Ramen,,yelp_2_1796,Centinela,S,3760.0,
Yang San Bak,(213) 365-9689,3601 W 6th St,90020,Korean,,yelp_2_1801,6Th,W,3601.0,
JINYA Ramen Bar,(323) 954-6477,5168 Wilshire Bld,90036,Ramen,,yelp_2_1803,Wilshire Bld,,5168.0,
California Gogi Grill,(213) 744-1910,3742 S Figueroa St,90007,Korean,,yelp_2_1804,Figueroa,S,3742.0,
Noodles,(213) 388-8988,539 S Western Ave,90020,Vietnamese,,yelp_2_1806,Western,S,539.0,
Blue Plate Oysterette,(323) 656-5474,8048 W 3rd St,90048,Seafood,,yelp_2_1807,3Rd,W,8048.0,
PINGTUNG Eat-in Market,(323) 866-1866,7455 Melrose Ave,90046,Dim Sum,,yelp_2_1809,Melrose,,7455.0,
M Grill,(213) 389-2770,3832 Wilshire BlvdSte 202,90010,Brazilian,,yelp_2_1810,Wilshire Blvdste 202,,3832.0,
Robata JINYA,(323) 653-8877,8050 West 3rd St,90048,Ramen,,yelp_2_1812,3Rd,W,8050.0,
Yuko Kitchen,(323) 933-4020,5484 Wilshire Blvd,90036,Japanese,,yelp_2_1815,Wilshire,,5484.0,
Osso DTLA,(213) 880-5999,901 E 1st St,90012,American (New),,yelp_2_1817,1St,E,901.0,
Froma on Melrose,(323) 653-3700,7960 Melrose Ave,90046,Specialty Food,,yelp_2_1819,Melrose,,7960.0,
Escala,(213) 387-1113,3451 W 6th St,90020,Colombian,,yelp_2_1823,6Th,W,3451.0,
Fiddler’s Bistro,(323) 931-8167,6009 W 3rd St,90036,Breakfast & Brunch,,yelp_2_1825,3Rd,W,6009.0,
Hotel Café,(323) 461-2040,1623 1/2 N Cahuenga Blvd,90028,Music Venues,,yelp_2_1827,1/2 N Cahuenga,,1623.0,
Luv2Eat Thai Bistro,(323) 498-5835,6660 W Sunset BlvdUnit P,90028,Thai,,yelp_2_1829,Sunset Blvdunit P,W,6660.0,
Shintaro Japanese Restaurant,(323) 882-6524,1900 N Highland AveSte 5,90068,Sushi Bars,,yelp_2_1830,Highland Aveste 5,N,1900.0,
Father’s Office,(310) 736-2224,3229 Helms Ave,90034,American (New),,yelp_2_1831,Helms,,3229.0,
Ostrich Farm,(213) 537-0657,1525 W Sunset Blvd,90026,American (Traditional),,yelp_2_1834,Sunset,W,1525.0,
Ham Ji Park,(213) 365-8773,3407 W 6th StSte 101C,90020,Korean,,yelp_2_1837,6Th,W,3407.0,
Blind Weasel,(323) 549-9488,850 S La Brea Ave,90036,Gastropubs,,yelp_2_1839,La Brea,S,850.0,
Dulan’s On Crenshaw,(323) 296-3034,4859 Crenshaw Blvd,90043,Soul Food,,yelp_2_1841,Crenshaw,,4859.0,
Sushi Ye,(213) 388-8283,244 S Oxford AveSte 4,90004,Sushi Bars,,yelp_2_1843,Oxford Aveste 4,S,244.0,
Road To Seoul,(323) 731-9292,1230 S Western Ave,90006,Korean,,yelp_2_1846,Western,S,1230.0,
Colori Kitchen,(213) 622-5950,429 W 8th St,90014,Italian,,yelp_2_1847,8Th,W,429.0,
The Morrison,(323) 667-1839,3179 Los Feliz Blvd,90039,Gastropubs,,yelp_2_1849,Los Feliz,,3179.0,
Shin-Sen-Gumi Hakata Ramen - Little Tokyo,(213) 687-7108,132 S Central Ave,90012,Ramen,,yelp_2_1851,Central,S,132.0,
Urth Caffé,(213) 797-4534,451 S Hewitt St,90013,Coffee & Tea,,yelp_2_1854,Hewitt,S,451.0,
Hinoki & The Bird,(310) 552-1200,10 W Century Dr,90067,American (New),,yelp_2_1857,Century,W,10.0,
Simplethings,(323) 592-3390,8310 W 3rd St,90048,Desserts,,yelp_2_1859,3Rd,W,8310.0,
Get Bbul,(213) 380-7070,3189 1/2 W Olympic Blvd,90006,Korean,,yelp_2_1861,1/2 W Olympic,,3189.0,
Wako Donkasu,(213) 387-9256,2904 W Olympic Blvd,90006,Korean,,yelp_2_1862,Olympic,W,2904.0,
Sopressata At Black Hogg,(323) 953-2820,2852 Sunset Blvd,90026,Sandwiches,,yelp_2_1863,Sunset,,2852.0,
Jaragua,(323) 661-1985,4493 Beverly Blvd,90004,Latin American,,yelp_2_1864,Beverly,,4493.0,
King Taco,(213) 384-8115,2020 W Pico Blvd,90006,Mexican,,yelp_2_1865,Pico,W,2020.0,
Monsieur Marcel,(323) 939-7792,Farmers Market6333 W 3rd St,90036,Specialty Food,,yelp_2_1867,Farmers Market 6333 W 3Rd,,-1.0,
Ohana Poké Co,(323) 953-2820,2852 W Sunset Blvd,90026,Hawaiian,,yelp_2_1869,Sunset,W,2852.0,
Ombu Grill,(213) 637-0262,400 S Western AveSte 104,90020,Korean,,yelp_2_1870,Western Aveste 104,S,400.0,
Kush Sake Bar,(213) 265-7609,1356 Allison Ave,90026,Japanese,,yelp_2_1872,Allison,,1356.0,
Guadalupe’s Place,(323) 462-3329,5028 Melrose Ave,90038,Mexican,,yelp_2_1874,Melrose,,5028.0,
Cafe Verona,(323) 934-6188,201 S La Brea Ave,90036,Italian,,yelp_2_1876,La Brea,S,201.0,
Toe Bang Cafe,(213) 387-4905,"Chapman Plaza3465 W 6th St, Ste 110",90020,"Korean,Korean",,yelp_2_1877,Chapman,,-1.0,ste 110
Cafe Los Feliz,(323) 664-7111,2118 Hillhurst Ave,90027,Bakeries,,yelp_2_1879,Hillhurst,,2118.0,
Shin Ramen,(323) 874-4692,1655 N La Brea Ave,90028,"Japanese,Performing Arts,Dry Cleaning & Laundry",,yelp_2_1880,La Brea,N,1655.0,
Tip’s House,(213) 387-2671,3970 W 6th St,90020,Thai,,yelp_2_1883,6Th,W,3970.0,
AOC,(310) 859-9859,8700 W 3rd St,90048,Wine Bars,,yelp_2_1885,3Rd,W,8700.0,
Surawon,(213) 383-7317,2833 W Olympic Blvd,90006,Korean,,yelp_2_1887,Olympic,W,2833.0,
Zzamong,(213) 739-2747,4255 W 3rd St,90004,Korean,,yelp_2_1888,3Rd,W,4255.0,
Redbird,(213) 788-1191,114 E 2nd St,90012,Cocktail Bars,,yelp_2_1891,2Nd,E,114.0,
Tere’s Mexican Grill,(323) 468-9345,5870 Melrose AveSte 101,90038,Mexican,,yelp_2_1892,Melrose Aveste 101,,5870.0,
Bestia,(213) 514-5724,2121 E 7th Pl,90021,Italian,,yelp_2_1893,7Th,E,2121.0,
BCD Tofu House,(213) 382-6677,3575 Wilshire Blvd,90010,"Korean,Korean,Korean,Korean,Korean",,yelp_2_1894,Wilshire,,3575.0,
Saint Felix,(323) 469-5001,1602 N Cahuenga Blvd,90028,Bars,,yelp_2_1895,Cahuenga,N,1602.0,
Suehiro Cafe,(213) 626-9132,337 E 1st St,90012,Japanese,,yelp_2_1896,1St,E,337.0,
Kuishimbo,(213) 380-8055,4001 Wilshire BlvdSte E,90010,"Japanese,Japanese",,yelp_2_1897,Wilshire Blvdste E,,4001.0,
Pizzeria Il Fico,(310) 271-3426,310 S Robertson Blvd,90048,Pizza,,yelp_2_1898,Robertson,S,310.0,
1810 Argentinean Restaurant,(213) 623-1810,105 W 9th St,90015,Argentine,,yelp_2_1902,9Th,W,105.0,
The Village Idiot,(323) 655-3331,7383 Melrose Ave,90046,American (New),,yelp_2_1903,Melrose,,7383.0,
Nickel Diner,(213) 623-8301,524 S Main St,90013,Diners,,yelp_2_1908,Main,S,524.0,
Restaurant Komasa,(213) 680-1792,351 E 2nd St,90012,Sushi Bars,,yelp_2_1912,2Nd,E,351.0,
Fred’s Downhome Burgers,(323) 298-7762,2524 W Slauson Ave,90043,Burgers,,yelp_2_1914,Slauson,W,2524.0,
Pizza Romana,(323) 939-1148,615 N La Brea Ave,90036,Pizza,,yelp_2_1919,La Brea,N,615.0,
Sushi Gen,(213) 617-0552,422 E 2nd St,90012,Sushi Bars,,yelp_2_1920,2Nd,E,422.0,
Birds Rotisserie Chicken Cafe & Bar,(323) 465-0175,5925 Franklin Ave,90028,American (New),,yelp_2_1921,Franklin,,5925.0,
Flavors of Thai,(213) 263-2535,1275 S Union Ave,90015,Thai,,yelp_2_1922,Union,S,1275.0,
Dong II Jang Restaurant,(213) 383-5757,3455 W 8th St,90005,Korean,,yelp_2_1925,8Th,W,3455.0,
Providence,(323) 460-4170,5955 Melrose Ave,90038,Seafood,,yelp_2_1926,Melrose,,5955.0,
Meals by Genet,(323) 938-9304,1053 S Fairfax Ave,90019,Ethiopian,,yelp_2_1930,Fairfax,S,1053.0,
Otomisan Restaurant,(323) 526-1150,2506 E 1st St,90033,Japanese,,yelp_2_1933,1St,E,2506.0,
Cali’s,(213) 944-0075,534 S Westmoreland AveSte 104,90020,Korean,,yelp_2_1934,Westmoreland Aveste 104,S,534.0,
Mexicali Taco & Co,(213) 613-0416,702 N Figueroa St,90012,Mexican,,yelp_2_1935,Figueroa,N,702.0,
Shojin Downtown,(213) 617-0305,333 S Alameda StSte 310,90013,Japanese,,yelp_2_1936,Alameda Stste 310,S,333.0,
Corner Place,(213) 487-0968,2819 James M Wood Blvd,90006,Korean,,yelp_2_1940,James M Wood,,2819.0,
Hong Galbi,(323) 734-2577,3132 W Olympic Blvd,90006,Korean,,yelp_2_1944,Olympic,W,3132.0,
Ciabatta Bar,(323) 500-1121,6464 W Sunset Blvd,90028,Italian,,yelp_2_1947,Sunset,W,6464.0,
OB Bear,(213) 480-4910,3002 W 7th St,90005,Korean,,yelp_2_1948,7Th,W,3002.0,
Pann’s Restaurant,(323) 776-3770,6710 La Tijera Blvd,90045,Diners,,yelp_2_1949,La Tijera,,6710.0,
Park’s BBQ,(213) 380-1717,955 S Vermont Ave,90006,Barbeque,,yelp_2_1953,Vermont,S,955.0,
My Two Cents,(323) 938-1012,5583 W Pico Blvd,90019,American (New),,yelp_2_1956,Pico,W,5583.0,
Honey Pig,(213) 380-0256,3400 W 8th St,90005,Korean,,yelp_2_1957,8Th,W,3400.0,
Sanamluang Cafe,(323) 660-8006,5176 Hollywood Blvd,90027,Thai,,yelp_2_1958,Hollywood,,5176.0,
Carney’s Sunset Strip,(323) 654-8300,8351 W Sunset Blvd,90069,Burgers,,yelp_2_1959,Sunset,W,8351.0,
Chung Ki Wa,(323) 737-0809,3545 W Olympic Blvd,90019,Korean,,yelp_2_1960,Olympic,W,3545.0,
Beverly Soon Tofu Restaurant,(213) 380-1113,2717 W Olympic BlvdSte 108,90006,Korean,,yelp_2_1961,Olympic Blvdste 108,W,2717.0,
The Main Course,(310) 475-7564,10509 W Pico Blvd,90064,American (Traditional),,yelp_2_1963,Pico,W,10509.0,
Vintage Enoteca,(323) 512-5278,7554 W Sunset Blvd,90046,Tapas/Small Plates,,yelp_2_1964,Sunset,W,7554.0,
TLT Food,(310) 443-4433,1116 Westwood Blvd,90024,American (New),,yelp_2_1970,Westwood,,1116.0,
Los Molcajetes,(213) 388-8994,1800 W 8th St,90057,Latin American,,yelp_2_1977,8Th,W,1800.0,
Beverly Chicken,(323) 660-8200,3909 Beverly Blvd,90004,Mediterranean,,yelp_2_1979,Beverly,,3909.0,
Terrine,(323) 746-5130,8265 Beverly Blvd,90048,French,,yelp_2_1981,Beverly,,8265.0,
Speranza,(323) 644-1918,2547 Hyperion Ave,90027,Italian,,yelp_2_1983,Hyperion,,2547.0,
Tribal Cafe,(213) 483-4458,1651 W Temple StSte A,90026,Coffee & Tea,,yelp_2_1987,Temple Stste A,W,1651.0,
Holy Crab,(213) 252-0058,3250 Wilshire BlvdSte 103,90010,Seafood,,yelp_2_1990,Wilshire Blvdste 103,,3250.0,
Ondal 2,(323) 933-3228,4566 W Washington Blvd,90016,Korean,,yelp_2_1991,Washington,W,4566.0,
Honda Ya Izakaya,(213) 625-1184,333 S Alameda StSte 314,90013,Japanese,,yelp_2_1993,Alameda Stste 314,S,333.0,
Paros Chicken,(323) 469-2610,1117 N Hobart Blvd,90029,Mediterranean,,yelp_2_1994,Hobart,N,1117.0,
Naegohyang Restaurant,(213) 381-0022,3516 W 8th St,90005,Korean,,yelp_2_1998,8Th,W,3516.0,
Lemonade,(323) 464-0700,626 N Larchmont Blvd,90004,American (New),,yelp_2_2001,Larchmont,N,626.0,
KaGaYa,(213) 617-1016,418 E 2nd St,90012,Japanese,,yelp_2_2002,2Nd,E,418.0,
Sadie Kitchen and Lounge,(323) 467-0200,1638 N Las Palmas Ave,90028,American (New),,yelp_2_2003,Las Palmas,N,1638.0,
Olga’s Naturally,(323) 965-0269,3560 S La Cienega Blvd,90016,Mexican,,yelp_2_2005,La Cienega,S,3560.0,
Prael,(323) 663-7122,4620 Melrose Ave,90029,Thai,,yelp_2_2006,Melrose,,4620.0,
Vinoteque On Melrose,(310) 860-6060,7469 Melrose Ave,90046,"Tapas/Small Plates,Farmers Market",,yelp_2_2008,Melrose,,7469.0,
Phillips Barbecue,(323) 731-4772,2619 Crenshaw Blvd,90016,Barbeque,,yelp_2_2009,Crenshaw,,2619.0,
Fratelli Cafe,(323) 938-2233,7200 Melrose Ave,90046,Coffee & Tea,,yelp_2_2010,Melrose,,7200.0,
The Bun Shop,(323) 468-1031,151 N Western Ave,90004,"Korean,Asian Fusion,Asian Fusion",,yelp_2_2011,Western,N,151.0,
Arashi Sushi,(213) 749-1900,1111 S Hope StSte 100,90015,Sushi Bars,,yelp_2_2012,Hope Stste 100,S,1111.0,
Best Fish Taco In Ensenada,(323) 466-5552,1650 Hillhurst Ave,90027,Mexican,,yelp_2_2014,Hillhurst,,1650.0,
Cafe Beaujolais,(323) 255-5111,1712 Colorado Blvd,90041,French,,yelp_2_2015,Colorado,,1712.0,
Simpang Asia,(310) 815-9075,10433 National BlvdSte 2,90034,Indonesian,,yelp_2_2016,National Blvdste 2,,10433.0,
Olympic Cheonggukjang,(213) 480-1107,2528 W Olympic BlvdSte 104,90006,Korean,,yelp_2_2017,Olympic Blvdste 104,W,2528.0,
Berlin Currywurst,(323) 663-1989,3827 W Sunset Blvd,90026,German,,yelp_2_2018,Sunset,W,3827.0,
Kuishimbo Restaurant,(213) 380-5049,3407 W 6th StSte 101A,90020,"Japanese,Japanese",,yelp_2_2019,6Th,W,3407.0,
Aroma Restaurant,(323) 644-2833,2903 W Sunset Blvd,90026,Italian,,yelp_2_2020,Sunset,W,2903.0,
Manuel’s Original El Tepeyac Cafe,(323) 268-1960,812 N Evergreen Ave,90033,Mexican,,yelp_2_2021,Evergreen,N,812.0,
Figueroa Philly Cheese Steak,(213) 748-9073,3850 S Figueroa St,90037,Cheesesteaks,,yelp_2_2022,Figueroa,S,3850.0,
Dan Sung Sa,(213) 487-9100,3317 W 6th St,90020,Dive Bars,,yelp_2_2023,6Th,W,3317.0,
Kyo-Dong,(213) 384-1716,City Center on 6th3500 W 6th St,90020,Korean,,yelp_2_2027,City,,-1.0,
Bernie’s Teriyaki,(213) 250-8413,318 Glendale Blvd,90026,Asian Fusion,,yelp_2_2028,Glendale,,318.0,
Spear Steak & Seafood House,(213) 688-3000,800 W 6th StSte 100,90017,American (New),,yelp_2_2029,6Th,W,800.0,
Cha Cha Chili,(323) 222-8900,4625 Valley Blvd,90032,Asian Fusion,,yelp_2_2030,Valley,,4625.0,
L & E Oyster Bar,(323) 660-2255,1637 Silver Lake Blvd,90026,"Seafood,Wine Bars",,yelp_2_2031,Silver,,1637.0,
Osteria Mozza,(323) 297-0100,6602 Melrose Ave,90038,Italian,,yelp_2_2035,Melrose,,6602.0,
Jesse’s Camarones Restaurant,(323) 735-6399,1479 W Adams Blvd,90007,Seafood,,yelp_2_2038,Adams,W,1479.0,
CJ’s Cafe,(323) 936-3216,5501 W Pico Blvd,90019,Mexican,,yelp_2_2040,Pico,W,5501.0,
Jack N Jill’s Too,(310) 858-4900,8738 W 3rd St,90048,Creperies,,yelp_2_2041,3Rd,W,8738.0,
TBLA Catering & Cafe,(213) 623-1013,765 Santee St,90014,American (New),,yelp_2_2042,Santee,,765.0,
Plan Check Kitchen + Bar,(213) 403-1616,1111 Wilshire Blvd,90017,Cocktail Bars,,yelp_2_2044,Wilshire,,1111.0,
Carnitas Michoacan,(323) 225-2729,1901 N Broadway,90031,Mexican,,yelp_2_2048,Broadway,N,1901.0,
Ludwig Biergarten,(323) 556-6679,6333 W 3rd StSte 706,90036,German,,yelp_2_2049,3Rd,W,6333.0,
Panini Cafe -Downtown,(213) 489-4200,600 W 9th St,90015,Italian,,yelp_2_2050,9Th,W,600.0,
Amalia’s Restaurant,(323) 644-1515,751 N Virgil Ave,90029,Latin American,,yelp_2_2057,Virgil,N,751.0,
Thai Deli,(323) 223-0269,1835 E Cesar E Chavez Ave,90033,Japanese,,yelp_2_2058,Cesar E Chavez,E,1835.0,
Araya’s Place - Thai Vegan Restaurant,(323) 900-0557,8101 Beverly Blvd,90048,Vegan,,yelp_2_2059,Beverly,,8101.0,
Nick’s Cafe,(323) 222-1450,1300 N Spring St,90012,Diners,,yelp_2_2061,Spring,N,1300.0,
Ariyoshi Sushi Cafe Izakaya,(323) 931-5358,5358 Wilshire Blvd,90036,Sushi Bars,,yelp_2_2062,Wilshire,,5358.0,
The Zipbob,(213) 389-2818,4003 Wilshire Blvd,90010,Korean,,yelp_2_2066,Wilshire,,4003.0,
Slurpin’ Ramen Bar,(213) 388-8607,3500 W 8th St,90005,Ramen,,yelp_2_2067,8Th,W,3500.0,
Il Capriccio on Vermont,(323) 662-5900,1757 N Vermont Ave,90027,Italian,,yelp_2_2068,Vermont,N,1757.0,
Ro Ro’s Chicken,(323) 461-9999,6660 W Sunset BlvdSte C,90028,Middle Eastern,,yelp_2_2069,Sunset Blvdste C,W,6660.0,
Cardamom Indian Cuisine,(323) 936-1000,7233 Beverly Blvd,90036,Indian,,yelp_2_2070,Beverly,,7233.0,
Jang Choong Dong Restaurant,(213) 386-3535,425 S Western Ave,90020,Korean,,yelp_2_2071,Western,S,425.0,
Cassell’s Hamburgers,(213) 387-5502,3600 W 6th St,90020,Burgers,,yelp_2_2074,6Th,W,3600.0,
LA Rose Cafe,(323) 662-4024,4749 Fountain Ave,90029,Filipino,,yelp_2_2078,Fountain,,4749.0,
Mother Dough,(323) 644-2885,4648 Hollywood Blvd,90027,Pizza,,yelp_2_2081,Hollywood,,4648.0,
Village Pizzeria,(323) 465-5566,131 N Larchmont Blvd,90004,Pizza,,yelp_2_2083,Larchmont,N,131.0,
Della Terra,(323) 933-7675,7675 Beverly Blvd,90036,Italian,,yelp_2_2086,Beverly,,7675.0,
PIPS On La Brea,(323) 954-7477,1356 S La Brea Ave,90019,Jazz & Blues,,yelp_2_2087,La Brea,S,1356.0,
Hot Wings Cafe,(323) 930-1233,7011 Melrose Ave,90038,Chicken Wings,,yelp_2_2088,Melrose,,7011.0,
Orleans and York Deli,(323) 291-8800,4454 W Slauson Ave,90043,Cajun/Creole,,yelp_2_2089,Slauson,W,4454.0,
Bourgeois Pig,(323) 464-6008,5931 Franklin Ave,90028,Coffee & Tea,,yelp_2_2090,Franklin,,5931.0,
Mainland Poke Shop,(323) 452-9904,8318 1/2 W 3rd St,90048,Hawaiian,,yelp_2_2093,1/2 W 3Rd,,8318.0,
Byul Gobchang,(213) 739-0321,3819 W 6th St,90020,Barbeque,,yelp_2_2096,6Th,W,3819.0,
Rocco’s Italian Kitchen,(323) 655-0058,6335 Wilshire Blvd,90048,Italian,,yelp_2_2097,Wilshire,,6335.0,
Blossom Restaurant,(213) 623-1973,426 S Main St,90013,Vietnamese,,yelp_2_2098,Main,S,426.0,
Grub,(323) 461-3663,911 Seward St,90038,American (New),,yelp_2_2100,Seward,,911.0,
Spitz - Little Tokyo,(213) 613-0101,371 E 2nd St,90012,Bars,,yelp_2_2103,2Nd,E,371.0,
Oo-Kook Korean BBQ,(213) 385-5665,3385 W 8th St,90005,Korean,,yelp_2_2104,8Th,W,3385.0,
India’s Restaurant,(323) 912-9230,4366 Fountain Ave,90029,Indian,,yelp_2_2105,Fountain,,4366.0,
Versailles Restaurant,(310) 558-3168,10319 Venice Blvd,90034,Cuban,,yelp_2_2107,Venice,,10319.0,
Perch,(213) 802-1770,448 S Hill St,90013,Lounges,,yelp_2_2109,Hill,S,448.0,
Ham Ji Park,(323) 733-8333,4135 W Pico Blvd,90019,Korean,,yelp_2_2110,Pico,W,4135.0,
Sky’s Gourmet Tacos,(323) 932-6253,5408 W Pico Blvd,90019,Mexican,,yelp_2_2112,Pico,W,5408.0,
Wako Donkasu,(213) 381-9256,3377 Wilshire BlvdSte 112,90010,Japanese,,yelp_2_2116,Wilshire Blvdste 112,,3377.0,
Marouch Restaurant,(323) 662-9325,4905 Santa Monica Blvd.,90029,Armenian,,yelp_2_2117,Santa Monica,,4905.0,
Blair’s Restaurant,(323) 660-1882,2903 Rowena Ave,90039,"Italian,IT Services & Computer Repair",,yelp_2_2124,Rowena,,2903.0,
Yang Ban Sul Lung Tang Restaurant,(213) 489-4640,716 E 9th Pl,90021,Korean,,yelp_2_2125,9Th,E,716.0,
New Dragon Seafood Restaurant,(213) 626-6050,936 N Hill St,90012,Chinese,,yelp_2_2127,Hill,N,936.0,
Taylor’s Steakhouse,(213) 382-8449,3361 W 8th St,90005,Steakhouses,,yelp_2_2128,8Th,W,3361.0,
Beachwood Cafe,(323) 871-1717,2695 N Beachwood Dr,90068,American (New),,yelp_2_2129,Beachwood,N,2695.0,
The Park,(213) 482-9209,1400 Sunset Blvd,90026,American (New),,yelp_2_2133,Sunset,,1400.0,
Natural Selection,(213) 265-7470,646 S Main St,90014,Vegetarian,,yelp_2_2136,Main,S,646.0,
The Counter,(213) 228-7800,725 W 7th St,90017,Burgers,,yelp_2_2137,7Th,W,725.0,
Pellicola Pizzeria,(213) 614-8000,421 W 8th St,90014,Italian,,yelp_2_2141,8Th,W,421.0,
Gulfstream,(310) 553-3636,10250 Santa Monica Blvd,90067,American (New),,yelp_2_2142,Santa Monica,,10250.0,
Pacific Dining Car,(213) 483-6000,1310 W 6th St,90017,Steakhouses,,yelp_2_2145,6Th,W,1310.0,
House of Macau,(323) 745-5038,1600 Vine St,90028,Chinese,,yelp_2_2146,Vine,,1600.0,
M Café de Chaya,(323) 525-0588,7119 Melrose Ave,90046,Vegetarian,,yelp_2_2147,Melrose,,7119.0,
Tacos Baja Ensenada,(323) 887-1980,5385 Whittier Blvd,90022,Mexican,,yelp_2_2149,Whittier,,5385.0,
Melrose Cafe,(323) 461-0077,5003 Melrose Ave,90038,Italian,,yelp_2_2151,Melrose,,5003.0,
Guero’s Cocina Mexicana,(213) 488-1574,737 S Los Angeles St,90014,Mexican,,yelp_2_2152,Los Angeles,S,737.0,
El Cochinito Restaurant,(323) 668-0737,3508 W Sunset Blvd,90026,"Cuban,Bakeries,Seafood,American (New),American (New),Seafood",,yelp_2_2154,Sunset,W,3508.0,
Quarters Korean BBQ,(213) 365-8111,3465 W 6th StC-130,90020,Korean,,yelp_2_2155,6Th,W,3465.0,
Yellow House Cafe,(213) 365-0820,234 S Oxford Ave,90004,Desserts,,yelp_2_2156,Oxford,S,234.0,
Rocco’s Italian Market and Deli,(323) 403-0900,1761 N Vermont,90027,Delis,,yelp_2_2157,Vermont,N,1761.0,
El Carmen,(323) 852-1552,8138 W 3rd St,90048,Mexican,,yelp_2_2159,3Rd,W,8138.0,
Mel’s Fish Shack,(323) 732-6357,4524 W Jefferson Blvd,90016,"Seafood Markets,Bakeries",,yelp_2_2165,Jefferson,W,4524.0,
Soowon Galbi KBBQ Restaurant,(213) 365-9292,856 S Vermont AveSte C,90005,Korean,,yelp_2_2166,Vermont Aveste C,S,856.0,
A Food Affair,(310) 557-9795,1515 S Robertson Blvd,90035,French,,yelp_2_2178,Robertson,S,1515.0,
Nabeeya,(213) 622-5750,766 S Santee St,90014,Sushi Bars,,yelp_2_2179,Santee,S,766.0,
Dino’s Burgers,(323) 223-1843,2817 N Main St,90031,Burgers,,yelp_2_2180,Main,N,2817.0,
Sunshine Restaurant,(323) 462-4646,861 N Western Ave,90029,Thai,,yelp_2_2181,Western,N,861.0,
El Diner,(323) 931-1281,5515 Wilshire Blvd,90036,Mexican,,yelp_2_2183,Wilshire,,5515.0,
Tsujita LA Artisan Noodle,(310) 231-7373,2057 Sawtelle Blvd,90025,Ramen,,yelp_2_2184,Sawtelle,,2057.0,
The Original Ramen Burger,(213) 380-2399,239 S Vermont Ave,90004,Burgers,,yelp_2_2186,Vermont,S,239.0,
Chego!,(323) 380-8680,727 N BroadwayUnit 117,90012,Asian Fusion,,yelp_2_2189,Broadwayunit 117,N,727.0,
HMS Bounty,(213) 385-7275,3357 Wilshire Blvd,90010,Bars,,yelp_2_2191,Wilshire,,3357.0,
Homegirl Cafe and Catering,(213) 617-0380,130 W Bruno  St,90012,Vegetarian,,yelp_2_2193,Bruno,W,130.0,
Truxton’s American Bistro,(310) 417-8789,8611 Truxton Ave,90045,"American (New),American (New)",,yelp_2_2198,Truxton,,8611.0,
Atlacatl Restaurant,(323) 663-1404,301 N Berendo St,90004,Salvadoran,,yelp_2_2201,Berendo,N,301.0,
Sage Organic Vegan Bistro,(213) 989-1718,1700 Sunset Blvd,90026,Vegan,,yelp_2_2204,Sunset,,1700.0,
The Dresden Restaurant,(323) 665-4294,1760 N Vermont Ave,90027,Lounges,,yelp_2_2205,Vermont,N,1760.0,
Nick’s Coffee Shop & Deli,(310) 652-3567,8536 W Pico Blvd,90035,Diners,,yelp_2_2207,Pico,W,8536.0,
Gushi,(310) 208-4038,978 Gayley Ave,90024,Korean,,yelp_2_2209,Gayley,,978.0,
Little Jewel of New Orleans,(213) 620-0461,207 Ord St,90012,Delis,,yelp_2_2211,Ord,,207.0,
Necco,(310) 446-5241,1929 Westwood Blvd,90025,Japanese,,yelp_2_2213,Westwood,,1929.0,
Wat Dong Moon Lek Noodle,(323) 666-5993,4356 Fountain Ave,90029,Thai,,yelp_2_2215,Fountain,,4356.0,
Casa Nostra Ristorante & Bar,(213) 362-3311,825 W 9th St,90015,Italian,,yelp_2_2216,9Th,W,825.0,
Quicksand,(310) 439-9170,12201 Santa Monica Blvd,90025,"Salad,Coffee & Tea",,yelp_2_2221,Santa Monica,,12201.0,
Genwa Korean BBQ,(323) 549-0760,5115 Wilshire Blvd,90036,Korean,,yelp_2_2222,Wilshire,,5115.0,
Commissary,(213) 368-3030,The Line Hotel3515 Wilshire Blvd,90010,American (New),,yelp_2_2223,The Line Hotel 3515 Wilshire,,-1.0,
Wokcano,(323) 450-9037,8000 W Sunset BlvdSte A110,90046,Japanese,,yelp_2_2225,Sunset Blvdste A 110,W,8000.0,
LA Paella,(323) 951-0745,476 S San Vicente Blvd,90048,Spanish,,yelp_2_2231,San Vicente,S,476.0,
Room 5,(323) 938-2504,143 N La Brea Ave2nd Fl,90036,American (New),,yelp_2_2232,La Brea,N,143.0,
Soot Bull Jeep,(213) 387-3865,3136 W 8th St,90005,Korean,,yelp_2_2234,8Th,W,3136.0,
Young Dong Restaurant,(213) 386-3729,3828 Wilshire Blvd,90010,Korean,,yelp_2_2237,Wilshire,,3828.0,
Jeon Ju Restaurant,(213) 386-5678,2716 W Olympic BlvdSte 101,90006,Korean,,yelp_2_2242,Olympic Blvdste 101,W,2716.0,
Tofu and Noodles,(213) 915-0256,3068 W 8th St,90005,Korean,,yelp_2_2244,8Th,W,3068.0,
Swingers Diner,(323) 653-5858,8020 Beverly Blvd,90048,Diners,,yelp_2_2247,Beverly,,8020.0,
Sachi Teriyaki House,(323) 293-3865,4455 W Slauson Ave,90043,Japanese,,yelp_2_2251,Slauson,W,4455.0,
Lotus,(213) 478-0090,3742 S Flower St,90007,Hookah Bars,,yelp_2_2252,Flower,S,3742.0,
Industriel,(213) 488-8020,609 S Grand Ave,90017,American (New),,yelp_2_2253,Grand,S,609.0,
Cabbage Patch,(213) 489-4489,520 W 6th St,90014,American (New),,yelp_2_2254,6Th,W,520.0,
Mitsuru Cafe,(213) 613-1028,117 Japanese Village Plz Mall,90012,Japanese,,yelp_2_2256,Japanese,,117.0,
E-Moon Oak Restaurant,(213) 387-8899,869 S Western AveSte 5,90005,Korean,,yelp_2_2262,Western Aveste 5,S,869.0,
The Fix Burger,(323) 661-8494,2520 Hyperion Ave,90027,Burgers,,yelp_2_2263,Hyperion,,2520.0,
BLD,(323) 930-9744,7450 Beverly Blvd,90036,American (New),,yelp_2_2266,Beverly,,7450.0,
Pho 87,(323) 227-0758,1019 N  Broadway,90012,Vietnamese,,yelp_2_2267,Broadway,N,1019.0,
Shin-Sen-Gumi Hakata Ramen - West L.A.,(424) 208-3293,1601 Sawtelle Blvd,90025,Ramen,,yelp_2_2269,Sawtelle,,1601.0,
Humble Potato,(323) 989-2242,8321 Lincoln Blvd,90045,Burgers,,yelp_2_2271,Lincoln,,8321.0,
The New Moon,(213) 624-0186,102 W 9th St,90015,Chinese,,yelp_2_2273,9Th,W,102.0,
Curry House,(213) 620-0855,123 S Onizuka StSte 204,90012,Japanese,,yelp_2_2276,Onizuka Stste 204,S,123.0,
EMC Seafood & Raw Bar,(213) 351-9988,3500 W 6th StSte 101,90020,Seafood,,yelp_2_2277,6Th,W,3500.0,
El Camaron Pelado,(323) 505-7544,2676 Pasadena Ave,90031,Seafood,,yelp_2_2278,Pasadena,,2676.0,
Little Dom’s,(323) 661-0055,2128 Hillhurst Ave,90027,"Italian,American (New)",,yelp_2_2279,Hillhurst,,2128.0,
Zermeño’s Restaurant,(323) 467-1202,6115 Santa Monica Blvd,90038,Mexican,,yelp_2_2280,Santa Monica,,6115.0,
The Hollywood Corner,(323) 463-2220,1156 N Highland Ave,90038,American (Traditional),,yelp_2_2281,Highland,N,1156.0,
Khun Dom Thai,(323) 663-1086,4681 Melrose Ave,90029,Thai,,yelp_2_2282,Melrose,,4681.0,
Simply Pho You,(213) 381-2246,698 S Vermont Ave,90005,Vietnamese,,yelp_2_2283,Vermont,S,698.0,
Market Place Restaurant,(213) 622-7285,1102 Lawrence St,90021,American (New),,yelp_2_2284,Lawrence,,1102.0,
Marie’s Deli & Cafe,(213) 622-5283,731 W 7th St,90017,Bagels,,yelp_2_2285,7Th,W,731.0,
Crossroads,(323) 782-9245,8284 Melrose Ave,90046,Vegan,,yelp_2_2286,Melrose,,8284.0,
Golden Burger 11,(213) 484-2868,1938 W 3rd St,90057,Fast Food,,yelp_2_2290,3Rd,W,1938.0,
Canter’s Deli,(323) 651-2030,419 N Fairfax Ave,90036,Bakeries,,yelp_2_2292,Fairfax,N,419.0,
Blossom Vietnamese Restaurant,(323) 953-8345,4019 W Sunset Blvd,90029,Vietnamese,,yelp_2_2296,Sunset,W,4019.0,
Sake House by Hikari,(213) 389-4000,3465 W 6th StSte 150,90020,Sushi Bars,,yelp_2_2297,6Th,W,3465.0,
Rao’s,(323) 962-7267,1006 Seward St,90038,Italian,,yelp_2_2298,Seward,,1006.0,
Rubio’s Cafe,(310) 202-1770,3380 S Robertson Blvd,90034,Mexican,,yelp_2_2302,Robertson,S,3380.0,
Mariscos 4 Vientos,(323) 266-4045,3000 E Olympic Blvd,90023,Mexican,,yelp_2_2306,Olympic,E,3000.0,
The IZAKA-YA by KATSU-YA,(323) 782-9536,8420 W 3rd St,90048,Sushi Bars,,yelp_2_2309,3Rd,W,8420.0,
Golden Mongolian Restaurant,(213) 263-2141,3012 Wilshire Blvd,90010,Mongolian,,yelp_2_2311,Wilshire,,3012.0,
Charcoal BBQ Bourbon & Beer,(323) 300-5500,2611 N Hyperion Ave,90027,Barbeque,,yelp_2_2312,Hyperion,N,2611.0,
Hama Sushi,(213) 680-3454,347 E 2nd St,90012,Sushi Bars,,yelp_2_2317,2Nd,E,347.0,
CW & Chris Fish and Chicken,(323) 750-9403,6512 S. Western Ave.,90047,Seafood,,yelp_2_2323,Western,S,6512.0,
The Shrimp Lover,(323) 668-9113,5112 Hollywood BlvdSte 101,90027,"Cajun/Creole,Seafood",,yelp_2_2326,Hollywood Blvdste 101,,5112.0,
Churros Calientes,(424) 248-3890,11521 Santa Monica Blvd,90025,Spanish,,yelp_2_2328,Santa Monica,,11521.0,
Yojie Japanese Fondue & Sake Bar,(213) 988-8808,501 W Olympic BlvdSte 102,90015,"Japanese,Japanese Restaurants",,yelp_2_2331,Olympic Blvdste 102,W,501.0,
Chibiscus Asian Cafe,(323) 977-9877,7361 W Sunset Blvd,90046,Bubble Tea,,yelp_2_2333,Sunset,W,7361.0,
Max City BBQ,(323) 254-4227,4729 Eagle Rock Blvd,90041,Caterers,,yelp_2_2336,Eagle Rock,,4729.0,
Cafe Brasil,(310) 391-1216,11736 W Washington Blvd,90066,Brazilian,,yelp_2_2338,Washington,W,11736.0,
Sun Nong Dan,(213) 365-0303,3470 W 6th StSte 7,90020,Korean,,yelp_2_2344,6Th,W,3470.0,
The Counter,(323) 932-8900,5779 Wilshire Blvd,90036,Burgers,,yelp_2_2346,Wilshire,,5779.0,
La Caridad Restaurant,(213) 484-0099,2619 W Sunset Blvd,90026,Cuban,,yelp_2_2347,Sunset,W,2619.0,
El Taurino,(213) 738-9197,2306 W 11th St,90006,Mexican,,yelp_2_2348,11Th,W,2306.0,
Church & State,(213) 405-1434,1850 Industrial St,90021,French,,yelp_2_2349,Industrial,,1850.0,
My Vegan Gold,(323) 522-6500,4319 W Sunset Blvd,90029,American (New),,yelp_2_2350,Sunset,W,4319.0,
Thai Original BBQ And Restaurant,(213) 383-8571,4055 W 3rd St,90020,Thai,,yelp_2_2351,3Rd,W,4055.0,
Mabel’s Chicken & Waffles,(213) 536-5557,314 W Olympic Blvd,90015,American (Traditional),,yelp_2_2353,Olympic,W,314.0,
25 Degrees,(323) 785-7244,Hollywood Roosevelt Hotel7000 Hollywood Blvd,90028,Burgers,,yelp_2_2355,Hollywood Roosevelt Hotel 7000 Hollywood,,-1.0,
Kiku Sushi,(323) 464-1323,246 N Larchmont Blvd,90004,Sushi Bars,,yelp_2_2356,Larchmont,N,246.0,
Eight Korean BBQ,(213) 365-1750,863 S Western Ave,90005,Korean,,yelp_2_2360,Western,S,863.0,
Nong La Cafe,(323) 938-1188,145 N La Brea BlvdSte B,90036,Vietnamese,,yelp_2_2361,La Brea Blvdste B,N,145.0,
Kaya Street Kitchen,(323) 879-9288,109 N Fairfax Ave,90036,Asian Fusion,,yelp_2_2362,Fairfax,N,109.0,
Seongbukdong,(213) 738-8977,3303 W 6th St,90020,Korean,,yelp_2_2365,6Th,W,3303.0,
Animal,(323) 782-9225,435 N Fairfax Ave,90036,American (New),,yelp_2_2366,Fairfax,N,435.0,
Yangji Gamjatang,(213) 388-1105,3470 W 6th StSte 6,90020,Soup,,yelp_2_2368,6Th,W,3470.0,
Ten-Raku,(213) 380-8382,4177 W 3rd St,90020,"Japanese,Korean",,yelp_2_2369,3Rd,W,4177.0,
Rose & Vine,(323) 962-6369,724 Vine St,90038,American (New),,yelp_2_2370,Vine,,724.0,
Wood Spoon,(213) 629-1765,107 W 9th St,90015,Brazilian,,yelp_2_2372,9Th,W,107.0,
Freemans,(212) 420-0012,191 Chrystie StSte 2F,10002,Breakfast & Brunch,,yelp_2_3229,Chrystie Stste 2F,,191.0,
Pylos,(212) 473-0220,128 E 7th St,10009,Greek,,yelp_2_3236,7Th,E,128.0,
Eastwood,(212) 233-0124,221 E Broadway,10002,Bars,,yelp_2_3269,Broadway,E,221.0,
Joe’s Shanghai,(212) 233-8888,9 Pell St,10013,Shanghainese,,yelp_2_3272,Pell,,9.0,
Galli,(212) 966-9288,45 Mercer St,10013,Italian,,yelp_2_3273,Mercer,,45.0,
L’Artusi,(212) 255-5757,228 W 10th St,10014,Italian,,yelp_2_3274,10Th,W,228.0,
Tasty Hand-Pulled Noodles,(212) 791-1817,1 Doyers St,10013,Chinese,,yelp_2_3276,Doyers,,1.0,
Shu Jiao Fu Zhou Cuisine Restaurant,(212) 625-2532,118 Eldridge St,10002,Chinese,,yelp_2_3281,Eldridge,,118.0,
Spaghetti Incident,(646) 896-1446,231 Eldridge St,10002,Italian,,yelp_2_3285,Eldridge,,231.0,
Woorijip Authentic Korean Food,(212) 244-1115,12 W 32nd St,10001,Korean,,yelp_2_3286,32Nd,W,12.0,
Mooncake Foods,(212) 219-8888,28 Watts St,10013,Asian Fusion,,yelp_2_3297,Watts,,28.0,
Eleven Madison Park,(212) 889-0905,11 Madison Ave,10010,American (New),,yelp_2_3307,Madison,,11.0,
Westville,(212) 677-2033,173 Ave A,10009,American (New),,yelp_2_3310,Ave A,,173.0,
Pisillo Italian Panini,(212) 227-3104,97 Nassau St,10038,Italian,,yelp_2_3311,Nassau,,97.0,
Pellegrino’s Italian Restaurant,(212) 226-3177,138 Mulberry St,10013,Italian,,yelp_2_3318,Mulberry,,138.0,
Shanghai Asian Manor,(212) 766-6311,21 Mott St,10013,Shanghainese,,yelp_2_3321,Mott,,21.0,
The Spotted Pig,(212) 620-0393,314 W 11th St,10014,Burgers,,yelp_2_3326,11Th,W,314.0,
Spicy Village,(212) 625-8299,68 Forsyth StSte B,10002,Chinese,,yelp_2_3340,Forsyth Stste B,,68.0,
Miramar,(212) 964-3000,21 S End Ave,10280,Seafood,,yelp_2_3341,End,S,21.0,
The Meatball Shop,(212) 982-8895,84 Stanton St,10002,Italian,,yelp_2_3364,Stanton,,84.0,
Trattoria Trecolori,(212) 997-4540,254 W 47th St,10036,Italian,,yelp_2_3366,47Th,W,254.0,
Pepe Rosso Social,(212) 219-0019,173 Mott St,10013,Italian,,yelp_2_3372,Mott,,173.0,
Kori,(212) 334-0908,253 Church St,10013,Korean,,yelp_2_3385,Church,,253.0,
Extra Virgin,(212) 691-9359,259 W 4th St,10014,Seafood,,yelp_2_3388,4Th,W,259.0,
The Green Table,(212) 741-6623,Chelsea Market75 9th Ave,10011,Vegetarian,,yelp_2_3396,Chelsea Market 75 9Th,,-1.0,
Bobwhite Counter,(212) 228-2972,94 Ave C,10009,Southern,,yelp_2_3398,Ave C,,94.0,
The Clam,(212) 242-7420,420 Hudson St,10014,"Seafood,American (New),American (New)",,yelp_2_3402,Hudson,,420.0,
Prosperity Dumpling,(212) 343-0683,46 Eldridge St,10002,Chinese,,yelp_2_3412,Eldridge,,46.0,
Distilled,(212) 601-9514,211 W Broadway,10013,American (New),,yelp_2_3416,Broadway,W,211.0,
Buddakan,(212) 989-6699,75 9th Ave,10011,Chinese,,yelp_2_3418,9Th,,75.0,
China Blue,(212) 431-0111,135 Watts St,10013,Shanghainese,,yelp_2_3424,Watts,,135.0,
Cuba,(212) 420-7878,222 Thompson St,10012,"Cuban,Latin American Restaurants,Mexican Restaurants,Latin American Restaurants,Cuban Restaurants",,yelp_2_3425,Thompson,,222.0,
Casa Adela,(212) 473-1882,66 Ave C,10009,Latin American,,yelp_2_3428,Ave C,,66.0,
Upstate,(917) 408-3395,95 1st Ave,10003,American (New),,yelp_2_3439,1St,,95.0,
Gentleman Farmer,(212) 677-2172,40 Rivington St,10002,American (New),,yelp_2_3440,Rivington,,40.0,
Kottu House,(646) 781-9222,250 Broome St,10002,Sri Lankan,,yelp_2_3443,Broome,,250.0,
Bite,(212) 677-3123,211 E 14th St,10003,Sandwiches,,yelp_2_3444,14Th,E,211.0,
Caracas Arepa Bar,(212) 529-2314,93 1/2 E 7th St,10009,Venezuelan,,yelp_2_3448,1/2 E 7Th,,93.0,
Los Tacos No.1,(212) 256-0343,Chelsea Market75 9th Ave,10011,Mexican,,yelp_2_3450,Chelsea Market 75 9Th,,-1.0,
Lao Di Fang,(212) 941-7678,28 Forsyth St,10002,Chinese,,yelp_2_3454,Forsyth,,28.0,
Barbuto,(212) 924-9700,775 Washington St,10014,Italian,,yelp_2_3473,Washington,,775.0,
DOMODOMO,(646) 707-0301,138 W Houston St,10012,Japanese,,yelp_2_3474,Houston,W,138.0,
Vanessa’s Dumpling House,(212) 625-8008,118 Eldridge St,10002,Chinese,,yelp_2_3496,Eldridge,,118.0,
Rubirosa,(212) 965-0500,235 Mulberry St,10012,Italian,,yelp_2_3497,Mulberry,,235.0,
Colicchio & Sons Tap Room,(212) 400-6699,85 10th Ave,10011,American (New),,yelp_2_3501,10Th,,85.0,
Maharlika,(646) 392-7880,111 1st Ave,10003,Filipino,,yelp_2_3504,1St,,111.0,
Whitman & Bloom,(212) 725-4110,384 3rd Ave,10016,American (New),,yelp_2_3508,3Rd,,384.0,
Almond Tribeca,(212) 431-0606,186 Franklin St,10013,Cocktail Bars,,yelp_2_3509,Franklin,,186.0,
District Tap House,(212) 221-1822,246 W 38th St,10018,Sports Bars,,yelp_2_3513,38Th,W,246.0,
Benito One,(212) 226-9171,174 Mulberry St,10013,Italian,,yelp_2_3515,Mulberry,,174.0,
Adrienne’s Pizzabar,(212) 248-3838,54 Stone St,10004,Pizza,,yelp_2_3517,Stone,,54.0,
Pinto,(212) 366-5455,118 Christopher St,10014,Thai,,yelp_2_3524,Christopher,,118.0,
Antica Ristorante,(212) 480-3880,8 Stone St,10004,Italian,,yelp_2_3526,Stone,,8.0,
Big Wong King,(212) 964-0540,67 Mott St,10013,Chinese,,yelp_2_3529,Mott,,67.0,
La Lanterna di Vittorio,(212) 529-5945,129 MacDougal St,10012,Italian,,yelp_2_3532,Macdougal,,129.0,
Zest,(212) 677-3158,249 Broome St,10002,Sushi Bars,,yelp_2_3533,Broome,,249.0,
Supper,(212) 477-7600,156 E 2nd St,10009,Italian,,yelp_2_3536,2Nd,E,156.0,
Carroll Place,(212) 260-1700,157 Bleecker St,10012,Gastropubs,,yelp_2_3551,Bleecker,,157.0,
Flinders Lane,(212) 228-6900,162 Ave A,10009,"Australian,American (New),Diners",,yelp_2_3559,Ave A,,162.0,
Da Claudio,(347) 947-6451,21 Ann St,10038,Italian,,yelp_2_3560,Ann,,21.0,
Mamoun’s Falafel,(212) 674-8685,119 MacDougal St,10012,Middle Eastern,,yelp_2_3564,Macdougal,,119.0,
Junior’s Restaurant,(212) 302-2000,1515 Broadway,10036,Diners,,yelp_2_3565,Broadway,,1515.0,
Korchma Taras Bulba,(212) 510-7510,357 W Broadway,10013,Russian,,yelp_2_3582,Broadway,W,357.0,
Tartine,(212) 229-2611,253 W 11th St,10014,French,,yelp_2_3587,11Th,W,253.0,
Mighty Quinn’s Barbeque,(212) 677-3733,103 2nd Ave,10003,Barbeque,,yelp_2_3596,2Nd,,103.0,
Black Tap Craft Burgers & Beer,(917) 639-3089,529 Broome St,10013,American (Traditional),,yelp_2_3598,Broome,,529.0,
Cowgirl Sea Horse,(212) 608-7873,259 Front St,10038,Tex-Mex,,yelp_2_3606,Front,,259.0,
Barrio Chino,(212) 228-6710,253 Broome St,10002,Mexican,,yelp_2_3615,Broome,,253.0,
Root & Bone,(646) 682-7076,200 E 3rd St,10009,Southern,,yelp_2_3616,3Rd,E,200.0,
Pure Thai Cookhouse,(212) 581-0999,766 9th Ave,10019,Thai,,yelp_2_3619,9Th,,766.0,
Boqueria,(212) 255-4160,53 W 19th St,10011,Spanish,,yelp_2_3625,19Th,W,53.0,
Becco,(212) 397-7597,355 W 46th St,10036,"Italian,Italian,Italian,Italian,Italian,Italian",,yelp_2_3635,46Th,W,355.0,
Becco,(212) 397-7597,355 W 46th St,10036,"Italian,Italian,Italian,Italian,Italian,Italian",,yelp_2_3640,46Th,W,355.0,
Bistango,(212) 725-8484,415 3rd Ave,10016,Italian,,yelp_2_3642,3Rd,,415.0,
Oscar’s Place,(212) 741-6479,466 Hudson St,10014,Modern European,,yelp_2_3664,Hudson,,466.0,
Shanghai Asian Cuisine,(212) 964-5640,14A Elizabeth St,10013,Shanghainese,,yelp_2_3665,Elizabeth,,14.0,
Scarpetta,(212) 691-0555,355 W 14th St,10014,Italian,,yelp_2_3679,14Th,W,355.0,
The Bao,(212) 388-9238,13 St Marks Pl,10003,Chinese,,yelp_2_3684,St Marks,,13.0,
Ugly Kitchen,(212) 777-6677,103 1st Ave,10003,Bars,,yelp_2_3691,1St,,103.0,
K’OOK,(212) 254-0300,324 E 6th St,10003,Korean,,yelp_2_3692,6Th,E,324.0,
Prince St. Pizza,(212) 966-4100,27 Prince St,10012,Pizza,,yelp_2_3702,Prince,,27.0,
Nino’s 46,(212) 719-4015,39 W 46th St,10036,Italian,,yelp_2_3709,46Th,W,39.0,
Emporio,(212) 966-1234,231 Mott St,10012,"Italian,Italian Restaurants",,yelp_2_3714,Mott,,231.0,
Sakagura,(212) 953-7253,211 E 43rd St,10017,Japanese,,yelp_2_3715,43Rd,E,211.0,
Nish Nush,(212) 964-1318,88 Reade St,10013,Middle Eastern,,yelp_2_3727,Reade,,88.0,
Barbalu Restaurant,(646) 918-6565,225-227 Front St,10038,Italian,,yelp_2_3730,Front,,-1.0,
Burger & Barrel,(212) 334-7320,25 W Houston St,10012,Burgers,,yelp_2_3737,Houston,W,25.0,
Da Mikele,(212) 925-8800,275 Church St,10013,Italian,,yelp_2_3747,Church,,275.0,
Malaparte,(212) 255-2122,753 Washington St,10014,Italian,,yelp_2_3761,Washington,,753.0,
Risotteria Melotti,(646) 755-8939,309 E 5th St,10003,Italian,,yelp_2_3763,5Th,E,309.0,
La Panineria,(917) 388-3257,1 W 8th St,11001,Italian,,yelp_2_3774,8Th,W,1.0,
Mark,(212) 677-3132,33 St Marks Pl,10003,Burgers,,yelp_2_3777,St Marks,,33.0,
Hill and Dale,(212) 420-1115,115 Allen St,10002,Bars,,yelp_2_3779,Allen,,115.0,
Fools Gold NYC,(212) 673-2337,145 E Houston St,10002,Gastropubs,,yelp_2_3784,Houston,E,145.0,
Zutto Japanese American Pub,(212) 233-3287,77 Hudson St,10013,Asian Fusion,,yelp_2_3788,Hudson,,77.0,
Gato,(212) 334-6400,324 Lafayette St,10012,Mediterranean,,yelp_2_3791,Lafayette,,324.0,
Trading Post,(646) 370-3337,170 John St,10038,Bars,,yelp_2_3794,John,,170.0,
Sushi Yasuda,(212) 972-1001,204 E 43rd St,10017,Sushi Bars,,yelp_2_3795,43Rd,E,204.0,
Club A Steakhouse,(212) 688-4190,240 E 58th St,10022,Steakhouses,,yelp_2_3799,58Th,E,240.0,
Ngam,(212) 777-8424,99 3rd Ave,10003,Thai,,yelp_2_3815,3Rd,,99.0,
Song E Napule,(212) 533-1242,146 W Houston St,10012,Pizza,,yelp_2_3816,Houston,W,146.0,
Il Corallo Trattoria,(212) 941-7119,176 Prince St,10012,Italian,,yelp_2_3826,Prince,,176.0,
The Eddy,(646) 895-9884,342 E 6th St,10003,"American (New),American (New)",,yelp_2_3827,6Th,E,342.0,
Lombardi’s Pizza,(212) 941-7994,32 Spring St,10012,Pizza,,yelp_2_3829,Spring,,32.0,
Bar B,(212) 229-1888,84 7th Ave,10011,Italian,,yelp_2_3830,7Th,,84.0,
Cha-An,(212) 228-8030,230 E 9th St2nd Fl,10003,"Japanese,Japanese Restaurants,Sushi,Sushi,Japanese Restaurants,Japanese Restaurants",,yelp_2_3840,9Thst,E,230.0,
Café Orlin,(212) 777-1447,41 St Marks Pl,10003,Breakfast & Brunch,,yelp_2_3845,St Marks,,41.0,
12 Chairs,(212) 254-8640,56 MacDougal St,10012,Middle Eastern,,yelp_2_3852,Macdougal,,56.0,
Cooper’s Craft & Kitchen,(646) 606-2384,87 2nd Ave,10003,Bars,,yelp_2_3854,2Nd,,87.0,
Jungsik,(212) 219-0900,2 Harrison St,10013,Korean,,yelp_2_3855,Harrison,,2.0,
Pepolino Restaurant,(212) 966-9983,281 W Broadway,10013,Italian,,yelp_2_3862,Broadway,W,281.0,
Gardenia,(212) 604-0500,64 Downing St,10014,"Mediterranean,Mexican,Mexican",,yelp_2_3863,Downing,,64.0,
Robataya NY,(212) 979-9674,231 E 9th St,10003,Japanese,,yelp_2_3873,9Th,E,231.0,
Cipriani Le Specialita,(212) 557-5088,120 E 42nd St,10017,Specialty Food,,yelp_2_3886,42Nd,E,120.0,
GG’s,(212) 687-3641,511 E 5th St,10009,American (New),,yelp_2_3896,5Th,E,511.0,
Han Dynasty,(212) 390-8685,90 3rd Ave,10003,Szechuan,,yelp_2_3911,3Rd,,90.0,
Sukhumvit 51,(212) 888-8894,224 E 51st St,10022,Thai,,yelp_2_3913,51St,E,224.0,
Saxon + Parole,(212) 254-0350,316 Bowery,10012,American (New),,yelp_2_3915,Bowery,,316.0,
The Grey Dog,(212) 462-0041,49 Carmine St,10014,Coffee & Tea,,yelp_2_3920,Carmine,,49.0,
Degustation,(212) 979-1012,239 E 5th St,10003,French,,yelp_2_3928,5Th,E,239.0,
Woodrow’s,(212) 676-0300,43 Murray St,10007,American (Traditional),,yelp_2_3929,Murray,,43.0,
Beyond Sushi,(646) 861-2889,229 E 14th St,10003,Vegetarian,,yelp_2_3931,14Th,E,229.0,
Daniel,(212) 288-0033,60 E 65th St.,10065,French,,yelp_2_3939,65Th,E,60.0,
El Cocotero,(212) 206-8930,228 W 18th St,10011,Latin American,,yelp_2_3942,18Th,W,228.0,
Ootoya Times Square,(212) 704-0833,141 W 41st St,10036,Japanese,,yelp_2_3944,41St,W,141.0,
Atera,(212) 226-1444,77 Worth St,10013,Lounges,,yelp_2_3953,Worth,,77.0,
BarBacon,(646) 362-0622,836 9th Ave,10019,Gastropubs,,yelp_2_3954,9Th,,836.0,
Ofrenda,(212) 924-2305,113 7th Ave S,10014,Mexican,,yelp_2_3957,7Th,,113.0,
Pepe Rosso To Go,(212) 677-4555,149 Sullivan St,10012,Italian,,yelp_2_3966,Sullivan,,149.0,
Yakiniku West,(212) 979-9238,218 E 9th St,10003,Japanese,,yelp_2_3970,9Th,E,218.0,
Calle Ocho,(212) 873-5025,Inside the Excelsior Hotel45 W 81st St,10024,Cuban,,yelp_2_3973,Inside The Excelsior Hotel 45 W 81St,,-1.0,
The Stanton Social,(212) 995-0099,99 Stanton St,10002,Tapas/Small Plates,,yelp_2_3981,Stanton,,99.0,
Hillstone Restaurant,(212) 689-1090,378 Park Ave S,10010,American (New),,yelp_2_3988,Park,,378.0,
Amélie,(212) 533-2962,22 W 8th St,10011,French,,yelp_2_3994,8Th,W,22.0,
BCD Tofu House,(212) 967-1900,5W 32nd St,10001,Korean,,yelp_2_4000,32Nd,,5.0,
Baker & Co,(212) 255-1234,259 Bleecker St,10014,"Italian,Italian Restaurants",,yelp_2_4007,Bleecker,,259.0,
ABC Kitchen,(212) 475-5829,35 E 18th St,10003,American (New),,yelp_2_4027,18Th,E,35.0,
The MasalaWala,(212) 358-9300,179 Essex St,10002,Indian,,yelp_2_4029,Essex,,179.0,
Risotteria,(212) 924-6664,270 Bleecker St,10014,Italian,,yelp_2_4034,Bleecker,,270.0,
Sweet Chick,(646) 657-0233,178 Ludlow St,10002,Southern,,yelp_2_4051,Ludlow,,178.0,
Lam Zhou Handmade Noodle,(212) 566-6933,144 E Broadway,10002,Chinese,,yelp_2_4052,Broadway,E,144.0,
